{"type":"FeatureCollection","features":[{"type":"Feature","properties":{"name":"Abidjan, Côte d'Ivoire","id":"3316"},"geometry":{"type":"Point","coordinates":[-4.0263,5.3235]}},{"type":"Feature","properties":{"name":"Abu Dhabi, United Arab Emirates","id":"3858"},"geometry":{"type":"Point","coordinates":[54.419,24.4438]}},{"type":"Feature","properties":{"name":"Abu Talat, Egypt","id":"9485"},"geometry":{"type":"Point","coordinates":[29.7025,31.0719]}},{"type":"Feature","properties":{"name":"Accra, Ghana","id":"4181"},"geometry":{"type":"Point","coordinates":[-0.2011,5.5583]}},{"type":"Feature","properties":{"name":"Aden, Yemen","id":"5969"},"geometry":{"type":"Point","coordinates":[45.0335,12.8007]}},{"type":"Feature","properties":{"name":"Ajaccio, France","id":"6053"},"geometry":{"type":"Point","coordinates":[8.7387,41.9193]}},{"type":"Feature","properties":{"name":"Ajigaura, Japan","id":"5884"},"geometry":{"type":"Point","coordinates":[140.6123,36.3836]}},{"type":"Feature","properties":{"name":"Al Baida, Libya","id":"10838"},"geometry":{"type":"Point","coordinates":[21.7417,32.8818]}},{"type":"Feature","properties":{"name":"Al Brega, Libya","id":"7870"},"geometry":{"type":"Point","coordinates":[19.5765,30.3781]}},{"type":"Feature","properties":{"name":"Al Daayen, Qatar","id":"10232"},"geometry":{"type":"Point","coordinates":[51.4519,25.5386]}},{"type":"Feature","properties":{"name":"Al Ghaydah, Yemen","id":"7679"},"geometry":{"type":"Point","coordinates":[52.1823,16.2103]}},{"type":"Feature","properties":{"name":"Al Hidd, Bahrain","id":"10233"},"geometry":{"type":"Point","coordinates":[50.6563,26.2416]}},{"type":"Feature","properties":{"name":"Al Hudaydah, Yemen","id":"7681"},"geometry":{"type":"Point","coordinates":[43.0085,14.6856]}},{"type":"Feature","properties":{"name":"Al Khobar, Saudi Arabia","id":"7729"},"geometry":{"type":"Point","coordinates":[50.2143,26.2862]}},{"type":"Feature","properties":{"name":"Al Khoms, Libya","id":"7866"},"geometry":{"type":"Point","coordinates":[14.2645,32.6497]}},{"type":"Feature","properties":{"name":"Al Safat, Kuwait","id":"4294"},"geometry":{"type":"Point","coordinates":[47.9765,29.3699]}},{"type":"Feature","properties":{"name":"Al Seeb, Oman","id":"7646"},"geometry":{"type":"Point","coordinates":[58.1761,23.6846]}},{"type":"Feature","properties":{"name":"Al-Faw, Iraq","id":"9596"},"geometry":{"type":"Point","coordinates":[48.5318,29.9234]}},{"type":"Feature","properties":{"name":"Al-Kheesa, Qatar","id":"10682"},"geometry":{"type":"Point","coordinates":[51.5194,25.2943]}},{"type":"Feature","properties":{"name":"Alexandria, Australia","id":"6097"},"geometry":{"type":"Point","coordinates":[151.1962,-33.914]}},{"type":"Feature","properties":{"name":"Alexandria, Egypt","id":"6044"},"geometry":{"type":"Point","coordinates":[29.8899,31.1919]}},{"type":"Feature","properties":{"name":"Algiers, Algeria","id":"4176"},"geometry":{"type":"Point","coordinates":[3.0318,36.7653]}},{"type":"Feature","properties":{"name":"Alkmaar, Netherlands","id":"3086"},"geometry":{"type":"Point","coordinates":[4.7462,52.6347]}},{"type":"Feature","properties":{"name":"Alsgarde, Denmark","id":"10737"},"geometry":{"type":"Point","coordinates":[12.5369,56.0749]}},{"type":"Feature","properties":{"name":"Alta Vista,Canary Islands, Spain","id":"10726"},"geometry":{"type":"Point","coordinates":[-15.7,27.9996]}},{"type":"Feature","properties":{"name":"Amway Island, Bahrain","id":"10683"},"geometry":{"type":"Point","coordinates":[50.5759,26.229]}},{"type":"Feature","properties":{"name":"Anatoliko, Cyprus","id":"10384"},"geometry":{"type":"Point","coordinates":[32.5756,34.6926]}},{"type":"Feature","properties":{"name":"Anchorage, Alaska, United States","id":"4067"},"geometry":{"type":"Point","coordinates":[-149.8584,61.2174]}},{"type":"Feature","properties":{"name":"Ancol, Indonesia","id":"5860"},"geometry":{"type":"Point","coordinates":[106.8334,-6.1293]}},{"type":"Feature","properties":{"name":"Angoon, Alaska, United States","id":"8553"},"geometry":{"type":"Point","coordinates":[-134.5823,57.5018]}},{"type":"Feature","properties":{"name":"Annaba, Algeria","id":"4196"},"geometry":{"type":"Point","coordinates":[7.7555,36.9024]}},{"type":"Feature","properties":{"name":"Apia, Samoa","id":"5705"},"geometry":{"type":"Point","coordinates":[-171.7667,-13.8337]}},{"type":"Feature","properties":{"name":"Aqaba, Jordan","id":"4363"},"geometry":{"type":"Point","coordinates":[35.007,29.5318]}},{"type":"Feature","properties":{"name":"Archirondel, Jersey","id":"10377"},"geometry":{"type":"Point","coordinates":[-2.0213,49.2252]}},{"type":"Feature","properties":{"name":"Arendal, Norway","id":"6056"},"geometry":{"type":"Point","coordinates":[8.7724,58.4617]}},{"type":"Feature","properties":{"name":"Arica, Chile","id":"5800"},"geometry":{"type":"Point","coordinates":[-70.3067,-18.4738]}},{"type":"Feature","properties":{"name":"Asilah, Morocco","id":"5910"},"geometry":{"type":"Point","coordinates":[-6.0357,35.4707]}},{"type":"Feature","properties":{"name":"Athens, Greece","id":"3211"},"geometry":{"type":"Point","coordinates":[23.7363,37.9761]}},{"type":"Feature","properties":{"name":"Auckland, New Zealand","id":"3319"},"geometry":{"type":"Point","coordinates":[174.7704,-36.8844]}},{"type":"Feature","properties":{"name":"Auki, Solomon Islands","id":"10893"},"geometry":{"type":"Point","coordinates":[160.7,-8.7667]}},{"type":"Feature","properties":{"name":"Ayia Napa, Cyprus","id":"6029"},"geometry":{"type":"Point","coordinates":[34,34.9833]}},{"type":"Feature","properties":{"name":"Ayre of Caira, United Kingdom","id":"8682"},"geometry":{"type":"Point","coordinates":[-2.9001,58.8332]}},{"type":"Feature","properties":{"name":"Baby Beach, Aruba","id":"5776"},"geometry":{"type":"Point","coordinates":[-69.964,12.5181]}},{"type":"Feature","properties":{"name":"Bahar ic-Caghaq, Malta","id":"9028"},"geometry":{"type":"Point","coordinates":[14.4588,35.9341]}},{"type":"Feature","properties":{"name":"Baie Jacotet, Mauritius","id":"5906"},"geometry":{"type":"Point","coordinates":[57.4854,-20.474]}},{"type":"Feature","properties":{"name":"Baillif, Guadeloupe","id":"8834"},"geometry":{"type":"Point","coordinates":[-61.7139,16.0289]}},{"type":"Feature","properties":{"name":"Balboa, Panama","id":"8722"},"geometry":{"type":"Point","coordinates":[-79.5667,8.95]}},{"type":"Feature","properties":{"name":"Balchik, Bulgaria","id":"9594"},"geometry":{"type":"Point","coordinates":[28.1674,43.4143]}},{"type":"Feature","properties":{"name":"Ballesteros, Philippines","id":"8541"},"geometry":{"type":"Point","coordinates":[121.514,18.4094]}},{"type":"Feature","properties":{"name":"Ballinesker, Ireland","id":"8407"},"geometry":{"type":"Point","coordinates":[-6.3649,52.4015]}},{"type":"Feature","properties":{"name":"Balluta Bay, Malta","id":"6170"},"geometry":{"type":"Point","coordinates":[14.38,35.9341]}},{"type":"Feature","properties":{"name":"Ballygrangans, Ireland","id":"8406"},"geometry":{"type":"Point","coordinates":[-6.5588,52.184]}},{"type":"Feature","properties":{"name":"Bandar Abbas, Iran","id":"8848"},"geometry":{"type":"Point","coordinates":[56.2744,27.1873]}},{"type":"Feature","properties":{"name":"Bandon, Oregon, United States","id":"3554"},"geometry":{"type":"Point","coordinates":[-124.4083,43.1185]}},{"type":"Feature","properties":{"name":"Banff, United Kingdom","id":"8680"},"geometry":{"type":"Point","coordinates":[-2.5237,57.6669]}},{"type":"Feature","properties":{"name":"Banjul, Gambia","id":"4348"},"geometry":{"type":"Point","coordinates":[-16.5814,13.4559]}},{"type":"Feature","properties":{"name":"Bar, Montenegro","id":"9342"},"geometry":{"type":"Point","coordinates":[19.1003,42.0931]}},{"type":"Feature","properties":{"name":"Barcelona, Spain","id":"3036"},"geometry":{"type":"Point","coordinates":[2.1686,41.3853]}},{"type":"Feature","properties":{"name":"Bari, Italy","id":"3160"},"geometry":{"type":"Point","coordinates":[16.8667,41.1255]}},{"type":"Feature","properties":{"name":"Barka, Oman","id":"8947"},"geometry":{"type":"Point","coordinates":[58.0044,23.6794]}},{"type":"Feature","properties":{"name":"Barranquilla, Colombia","id":"4315"},"geometry":{"type":"Point","coordinates":[-74.7798,10.9404]}},{"type":"Feature","properties":{"name":"Barsebäck, Sweden","id":"8403"},"geometry":{"type":"Point","coordinates":[12.9554,55.7703]}},{"type":"Feature","properties":{"name":"Basseterre, Saint Kitts and Nevis","id":"4356"},"geometry":{"type":"Point","coordinates":[-62.7312,17.2984]}},{"type":"Feature","properties":{"name":"Bata, Equatorial Guinea","id":"9434"},"geometry":{"type":"Point","coordinates":[9.7682,1.8601]}},{"type":"Feature","properties":{"name":"Batam, Indonesia","id":"5862"},"geometry":{"type":"Point","coordinates":[103.9625,1.1347]}},{"type":"Feature","properties":{"name":"Batangas, Philippines","id":"3218"},"geometry":{"type":"Point","coordinates":[121.065,13.7655]}},{"type":"Feature","properties":{"name":"Beirut, Lebanon","id":"3862"},"geometry":{"type":"Point","coordinates":[35.4852,33.8925]}},{"type":"Feature","properties":{"name":"Belize City, Belize","id":"5791"},"geometry":{"type":"Point","coordinates":[-88.1816,17.4955]}},{"type":"Feature","properties":{"name":"Bellport, New York, United States","id":"5767"},"geometry":{"type":"Point","coordinates":[-72.9378,40.7556]}},{"type":"Feature","properties":{"name":"Belmullet, Ireland","id":"10395"},"geometry":{"type":"Point","coordinates":[-9.9912,54.2247]}},{"type":"Feature","properties":{"name":"Benghazi, Libya","id":"7871"},"geometry":{"type":"Point","coordinates":[20.0667,32.1166]}},{"type":"Feature","properties":{"name":"Beverwijk, Netherlands","id":"3080"},"geometry":{"type":"Point","coordinates":[4.657,52.4863]}},{"type":"Feature","properties":{"name":"Bilbao, Spain","id":"3067"},"geometry":{"type":"Point","coordinates":[-2.9461,43.2684]}},{"type":"Feature","properties":{"name":"Bizerte, Tunisia","id":"5958"},"geometry":{"type":"Point","coordinates":[9.8673,37.2764]}},{"type":"Feature","properties":{"name":"Blaabjerg, Denmark","id":"5818"},"geometry":{"type":"Point","coordinates":[8.329,55.7516]}},{"type":"Feature","properties":{"name":"Blackpool, United Kingdom","id":"8408"},"geometry":{"type":"Point","coordinates":[-3.0507,53.8087]}},{"type":"Feature","properties":{"name":"Bluefields, Nicaragua","id":"5920"},"geometry":{"type":"Point","coordinates":[-83.7715,11.9918]}},{"type":"Feature","properties":{"name":"Boat Harbour, Tasmania, Australia","id":"7813"},"geometry":{"type":"Point","coordinates":[145.6237,-40.9508]}},{"type":"Feature","properties":{"name":"Boca Raton, Florida, United States","id":"3563"},"geometry":{"type":"Point","coordinates":[-80.0889,26.3503]}},{"type":"Feature","properties":{"name":"Bonny, Nigeria","id":"5922"},"geometry":{"type":"Point","coordinates":[7.1666,4.4334]}},{"type":"Feature","properties":{"name":"Brean, United Kingdom","id":"5736"},"geometry":{"type":"Point","coordinates":[-3.0109,51.2937]}},{"type":"Feature","properties":{"name":"Bredene, Belgium","id":"8396"},"geometry":{"type":"Point","coordinates":[2.9619,51.2464]}},{"type":"Feature","properties":{"name":"Breivika, Norway","id":"9671"},"geometry":{"type":"Point","coordinates":[16.5532,68.735]}},{"type":"Feature","properties":{"name":"Bridgetown, Barbados","id":"4202"},"geometry":{"type":"Point","coordinates":[-59.6134,13.099]}},{"type":"Feature","properties":{"name":"Brighton, United Kingdom","id":"3170"},"geometry":{"type":"Point","coordinates":[-0.1372,50.8226]}},{"type":"Feature","properties":{"name":"Broadstairs, United Kingdom","id":"6033"},"geometry":{"type":"Point","coordinates":[1.4395,51.3588]}},{"type":"Feature","properties":{"name":"Brookhaven, New York, United States","id":"4512"},"geometry":{"type":"Point","coordinates":[-72.9123,40.7732]}},{"type":"Feature","properties":{"name":"Brookvale, Australia","id":"5781"},"geometry":{"type":"Point","coordinates":[151.2739,-33.7612]}},{"type":"Feature","properties":{"name":"Bude, United Kingdom","id":"4554"},"geometry":{"type":"Point","coordinates":[-4.5444,50.8281]}},{"type":"Feature","properties":{"name":"Bull Bay, Jamaica","id":"7689"},"geometry":{"type":"Point","coordinates":[-76.6667,17.9497]}},{"type":"Feature","properties":{"name":"Bunkeflostand, Sweden","id":"8401"},"geometry":{"type":"Point","coordinates":[12.9188,55.5568]}},{"type":"Feature","properties":{"name":"Bushehr, Iran","id":"9683"},"geometry":{"type":"Point","coordinates":[50.8428,28.97]}},{"type":"Feature","properties":{"name":"Cacuaco, Angola","id":"5775"},"geometry":{"type":"Point","coordinates":[13.3723,-8.7766]}},{"type":"Feature","properties":{"name":"Cagliari, Italy","id":"3162"},"geometry":{"type":"Point","coordinates":[9.1094,39.2154]}},{"type":"Feature","properties":{"name":"Calais, France","id":"4490"},"geometry":{"type":"Point","coordinates":[1.8528,50.9529]}},{"type":"Feature","properties":{"name":"Camuri, Venezuela","id":"5966"},"geometry":{"type":"Point","coordinates":[-66.8783,10.6061]}},{"type":"Feature","properties":{"name":"Cancún, Mexico","id":"3842"},"geometry":{"type":"Point","coordinates":[-86.7676,21.0957]}},{"type":"Feature","properties":{"name":"Canefield, Dominica","id":"8835"},"geometry":{"type":"Point","coordinates":[-61.3848,15.3033]}},{"type":"Feature","properties":{"name":"Cannes, France","id":"6279"},"geometry":{"type":"Point","coordinates":[7.0173,43.5529]}},{"type":"Feature","properties":{"name":"Cape Town, South Africa","id":"3921"},"geometry":{"type":"Point","coordinates":[18.422,-33.9191]}},{"type":"Feature","properties":{"name":"Cartagena, Colombia","id":"5693"},"geometry":{"type":"Point","coordinates":[-75.5057,10.3867]}},{"type":"Feature","properties":{"name":"Casablanca, Morocco","id":"3256"},"geometry":{"type":"Point","coordinates":[-7.6111,33.587]}},{"type":"Feature","properties":{"name":"Castries, Saint Lucia","id":"4207"},"geometry":{"type":"Point","coordinates":[-61.0068,13.9942]}},{"type":"Feature","properties":{"name":"Cat Island, Bahamas","id":"5784"},"geometry":{"type":"Point","coordinates":[-75.5259,24.4033]}},{"type":"Feature","properties":{"name":"Catania, Italy","id":"3214"},"geometry":{"type":"Point","coordinates":[15.0675,37.5116]}},{"type":"Feature","properties":{"name":"Caves Point, Bahamas","id":"5786"},"geometry":{"type":"Point","coordinates":[-76.5744,24.425]}},{"type":"Feature","properties":{"name":"Cavite, Philippines","id":"5931"},"geometry":{"type":"Point","coordinates":[120.8202,14.2862]}},{"type":"Feature","properties":{"name":"Cayenne, French Guiana","id":"5575"},"geometry":{"type":"Point","coordinates":[-52.3211,4.9413]}},{"type":"Feature","properties":{"name":"Cayeux-sur-Mer, France","id":"6051"},"geometry":{"type":"Point","coordinates":[1.4935,50.1788]}},{"type":"Feature","properties":{"name":"Cayman Brac, Cayman Islands","id":"6048"},"geometry":{"type":"Point","coordinates":[-79.8777,19.6903]}},{"type":"Feature","properties":{"name":"Chabahar, Iran","id":"8849"},"geometry":{"type":"Point","coordinates":[60.6297,25.2983]}},{"type":"Feature","properties":{"name":"Chaguaramas, Trinidad and Tobago","id":"8838"},"geometry":{"type":"Point","coordinates":[-61.6508,10.6862]}},{"type":"Feature","properties":{"name":"Changi, Singapore","id":"5937"},"geometry":{"type":"Point","coordinates":[103.987,1.389]}},{"type":"Feature","properties":{"name":"Chania, Greece","id":"5723"},"geometry":{"type":"Point","coordinates":[24.0122,35.5118]}},{"type":"Feature","properties":{"name":"Charlestown, Rhode Island, United States","id":"3580"},"geometry":{"type":"Point","coordinates":[-71.6459,41.4119]}},{"type":"Feature","properties":{"name":"Chennai, India","id":"4191"},"geometry":{"type":"Point","coordinates":[80.243,13.0635]}},{"type":"Feature","properties":{"name":"Chikura, Japan","id":"5885"},"geometry":{"type":"Point","coordinates":[139.9547,34.9766]}},{"type":"Feature","properties":{"name":"Chongming, China","id":"5802"},"geometry":{"type":"Point","coordinates":[121.3953,31.6199]}},{"type":"Feature","properties":{"name":"Chung Hom Kok, Hong Kong","id":"5856"},"geometry":{"type":"Point","coordinates":[114.2031,22.2221]}},{"type":"Feature","properties":{"name":"Civitavecchia, Italy","id":"7751"},"geometry":{"type":"Point","coordinates":[11.7969,42.0911]}},{"type":"Feature","properties":{"name":"Clair, United Kingdom","id":"10354"},"geometry":{"type":"Point","coordinates":[-2.3999,60.7499]}},{"type":"Feature","properties":{"name":"Clarence Town, Bahamas","id":"10360"},"geometry":{"type":"Point","coordinates":[-74.9662,23.0984]}},{"type":"Feature","properties":{"name":"Clonshaugh,Ireland","id":"10313"},"geometry":{"type":"Point","coordinates":[-6.1979,53.4101]}},{"type":"Feature","properties":{"name":"Cochin, India","id":"4322"},"geometry":{"type":"Point","coordinates":[76.2695,9.9381]}},{"type":"Feature","properties":{"name":"Cockburn Town, Bahamas","id":"10364"},"geometry":{"type":"Point","coordinates":[-74.5303,24.0526]}},{"type":"Feature","properties":{"name":"Coleraine, United Kingdom","id":"9038"},"geometry":{"type":"Point","coordinates":[-6.6762,55.1308]}},{"type":"Feature","properties":{"name":"Colombo, Sri Lanka","id":"3887"},"geometry":{"type":"Point","coordinates":[79.872,6.9268]}},{"type":"Feature","properties":{"name":"Colón, Panama","id":"6093"},"geometry":{"type":"Point","coordinates":[-79.9,9.3537]}},{"type":"Feature","properties":{"name":"Conakry, Guinea","id":"4208"},"geometry":{"type":"Point","coordinates":[-13.7038,9.5135]}},{"type":"Feature","properties":{"name":"Condado Beach, PR, United States","id":"6084"},"geometry":{"type":"Point","coordinates":[-66.078,18.4599]}},{"type":"Feature","properties":{"name":"Conil, Spain","id":"5944"},"geometry":{"type":"Point","coordinates":[-6.0872,36.2765]}},{"type":"Feature","properties":{"name":"Corfu, Greece","id":"6024"},"geometry":{"type":"Point","coordinates":[19.9196,39.6193]}},{"type":"Feature","properties":{"name":"Cotonou, Benin","id":"3315"},"geometry":{"type":"Point","coordinates":[2.4399,6.3566]}},{"type":"Feature","properties":{"name":"Cox’s Bazar, Bangladesh","id":"6299"},"geometry":{"type":"Point","coordinates":[91.9949,21.4292]}},{"type":"Feature","properties":{"name":"Crooked Island, Bahamas","id":"5782"},"geometry":{"type":"Point","coordinates":[-74.195,22.6297]}},{"type":"Feature","properties":{"name":"Crown Haven, Bahamas","id":"8355"},"geometry":{"type":"Point","coordinates":[-76.5744,24.425]}},{"type":"Feature","properties":{"name":"Current, Bahamas","id":"5787"},"geometry":{"type":"Point","coordinates":[-76.7877,25.4078]}},{"type":"Feature","properties":{"name":"Currimao, Philippines","id":"8536"},"geometry":{"type":"Point","coordinates":[120.3897,16.5828]}},{"type":"Feature","properties":{"name":"Cádiz, Spain","id":"4374"},"geometry":{"type":"Point","coordinates":[-6.2927,36.5295]}},{"type":"Feature","properties":{"name":"Dadeng Island, China","id":"10368"},"geometry":{"type":"Point","coordinates":[118.301,24.5567]}},{"type":"Feature","properties":{"name":"Daet, Philippines","id":"10355"},"geometry":{"type":"Point","coordinates":[122.95,14.1166]}},{"type":"Feature","properties":{"name":"Dakar, Senegal","id":"4180"},"geometry":{"type":"Point","coordinates":[-17.4519,14.6867]}},{"type":"Feature","properties":{"name":"Danang, Vietnam","id":"5986"},"geometry":{"type":"Point","coordinates":[108.2148,16.0515]}},{"type":"Feature","properties":{"name":"Dar Es Salaam, Tanzania","id":"4182"},"geometry":{"type":"Point","coordinates":[39.2697,-6.8232]}},{"type":"Feature","properties":{"name":"Darnah, Libya","id":"7873"},"geometry":{"type":"Point","coordinates":[22.6392,32.7636]}},{"type":"Feature","properties":{"name":"Dartmouth, United Kingdom","id":"10381"},"geometry":{"type":"Point","coordinates":[-3.5784,50.3518]}},{"type":"Feature","properties":{"name":"Das Island, United Arab Emirates","id":"6020"},"geometry":{"type":"Point","coordinates":[52.866,25.1526]}},{"type":"Feature","properties":{"name":"Deep Water Bay, Hong Kong","id":"5853"},"geometry":{"type":"Point","coordinates":[114.184,22.2494]}},{"type":"Feature","properties":{"name":"Deeside Clwyd,United Kingdom","id":"10338"},"geometry":{"type":"Point","coordinates":[-3.0276,53.2018]}},{"type":"Feature","properties":{"name":"Dhangethi, Maldives","id":"10813"},"geometry":{"type":"Point","coordinates":[72.9556,3.6081]}},{"type":"Feature","properties":{"name":"Diba, Oman","id":"10579"},"geometry":{"type":"Point","coordinates":[56.258,25.617]}},{"type":"Feature","properties":{"name":"Dieppe, France","id":"5831"},"geometry":{"type":"Point","coordinates":[1.0775,49.923]}},{"type":"Feature","properties":{"name":"Djibouti City, Djibouti","id":"4177"},"geometry":{"type":"Point","coordinates":[43.148,11.5947]}},{"type":"Feature","properties":{"name":"Doha, Qatar","id":"3867"},"geometry":{"type":"Point","coordinates":[51.5194,25.2943]}},{"type":"Feature","properties":{"name":"Douala, Cameroon","id":"4210"},"geometry":{"type":"Point","coordinates":[9.7063,4.0472]}},{"type":"Feature","properties":{"name":"Dover, United Kingdom","id":"6086"},"geometry":{"type":"Point","coordinates":[1.3176,51.1256]}},{"type":"Feature","properties":{"name":"Dragor, Denmark","id":"8400"},"geometry":{"type":"Point","coordinates":[12.6702,55.5936]}},{"type":"Feature","properties":{"name":"Draupner, Norway","id":"7648"},"geometry":{"type":"Point","coordinates":[2.6851,58.9225]}},{"type":"Feature","properties":{"name":"Dubai, United Arab Emirates","id":"3270"},"geometry":{"type":"Point","coordinates":[55.3085,25.2693]}},{"type":"Feature","properties":{"name":"Dublin, Ireland","id":"3077"},"geometry":{"type":"Point","coordinates":[-6.2483,53.348]}},{"type":"Feature","properties":{"name":"Dubrovnik, Croatia","id":"6043"},"geometry":{"type":"Point","coordinates":[18.1065,42.6419]}},{"type":"Feature","properties":{"name":"Dumai, Indonesia","id":"7311"},"geometry":{"type":"Point","coordinates":[101.4476,1.6653]}},{"type":"Feature","properties":{"name":"Dumpton Gap, United Kingdom","id":"8397"},"geometry":{"type":"Point","coordinates":[1.4394,51.3585]}},{"type":"Feature","properties":{"name":"Duncan Town, Bahamas","id":"10361"},"geometry":{"type":"Point","coordinates":[-75.7335,22.1833]}},{"type":"Feature","properties":{"name":"Dunnet Bay, United Kingdom","id":"5746"},"geometry":{"type":"Point","coordinates":[-3.3462,58.6153]}},{"type":"Feature","properties":{"name":"Durres, Albania","id":"6025"},"geometry":{"type":"Point","coordinates":[19.45,41.3167]}},{"type":"Feature","properties":{"name":"East London, South Africa","id":"9248"},"geometry":{"type":"Point","coordinates":[27.8667,-32.9833]}},{"type":"Feature","properties":{"name":"Egmond, Netherlands","id":"8409"},"geometry":{"type":"Point","coordinates":[4.6164,52.6164]}},{"type":"Feature","properties":{"name":"Eight-Mile Rock, Bahamas","id":"5783"},"geometry":{"type":"Point","coordinates":[-78.8029,26.5396]}},{"type":"Feature","properties":{"name":"Ekofisk, Norway","id":"7649"},"geometry":{"type":"Point","coordinates":[3.21,56.5491]}},{"type":"Feature","properties":{"name":"El Djemila, Algeria","id":"5774"},"geometry":{"type":"Point","coordinates":[5.7342,36.3134]}},{"type":"Feature","properties":{"name":"El Goro,Canary Islands, Spain","id":"5720"},"geometry":{"type":"Point","coordinates":[-15.7,27.9996]}},{"type":"Feature","properties":{"name":"El Médano,Canary Islands, Spain","id":"5722"},"geometry":{"type":"Point","coordinates":[-16.5386,28.0466]}},{"type":"Feature","properties":{"name":"Ela Beach, Papua New Guinea","id":"8350"},"geometry":{"type":"Point","coordinates":[147.1563,-9.4802]}},{"type":"Feature","properties":{"name":"Emi, Japan","id":"5894"},"geometry":{"type":"Point","coordinates":[140.0611,35.0624]}},{"type":"Feature","properties":{"name":"Estepona, Spain","id":"5943"},"geometry":{"type":"Point","coordinates":[-5.1459,36.4271]}},{"type":"Feature","properties":{"name":"Eydhafushi, Maldives","id":"10812"},"geometry":{"type":"Point","coordinates":[73.0708,5.1032]}},{"type":"Feature","properties":{"name":"Fangshan, Taiwan","id":"5980"},"geometry":{"type":"Point","coordinates":[120.6622,22.2492]}},{"type":"Feature","properties":{"name":"Farosund, Sweden","id":"7412"},"geometry":{"type":"Point","coordinates":[19.0553,57.863]}},{"type":"Feature","properties":{"name":"Florence, Oregon, United States","id":"8539"},"geometry":{"type":"Point","coordinates":[-124.0998,43.9821]}},{"type":"Feature","properties":{"name":"Florianópolis, Brazil","id":"3359"},"geometry":{"type":"Point","coordinates":[-48.5495,-27.597]}},{"type":"Feature","properties":{"name":"Fort Amador, Panama","id":"5925"},"geometry":{"type":"Point","coordinates":[-79.5467,8.9341]}},{"type":"Feature","properties":{"name":"Fortaleza, Brazil","id":"3347"},"geometry":{"type":"Point","coordinates":[-38.543,-3.7188]}},{"type":"Feature","properties":{"name":"Four Mile Bluff, Australia","id":"10796"},"geometry":{"type":"Point","coordinates":[146.8501,-41.0333]}},{"type":"Feature","properties":{"name":"Freetown, Sierra Leone","id":"4212"},"geometry":{"type":"Point","coordinates":[-13.2381,8.4854]}},{"type":"Feature","properties":{"name":"Fresh Creek, Bahamas","id":"10358"},"geometry":{"type":"Point","coordinates":[-77.8446,24.6898]}},{"type":"Feature","properties":{"name":"Fujairah, United Arab Emirates","id":"5962"},"geometry":{"type":"Point","coordinates":[56.3337,25.1217]}},{"type":"Feature","properties":{"name":"Fukuoka, Japan","id":"4059"},"geometry":{"type":"Point","coordinates":[130.4017,33.5903]}},{"type":"Feature","properties":{"name":"Funchal, Portugal","id":"5935"},"geometry":{"type":"Point","coordinates":[-16.9051,32.6473]}},{"type":"Feature","properties":{"name":"Funningsfjordur, Faeroe Islands","id":"5725"},"geometry":{"type":"Point","coordinates":[-6.9281,62.2441]}},{"type":"Feature","properties":{"name":"Fuvahmulah, Maldives","id":"10817"},"geometry":{"type":"Point","coordinates":[73.4269,-0.2984]}},{"type":"Feature","properties":{"name":"Fuzhou, China","id":"8620"},"geometry":{"type":"Point","coordinates":[119.3032,26.0711]}},{"type":"Feature","properties":{"name":"Gahdhoo, Maldives","id":"10815"},"geometry":{"type":"Point","coordinates":[73.4555,0.2888]}},{"type":"Feature","properties":{"name":"Gan, Maldives","id":"10814"},"geometry":{"type":"Point","coordinates":[73.5446,1.9186]}},{"type":"Feature","properties":{"name":"Ganaveh, Iran","id":"5990"},"geometry":{"type":"Point","coordinates":[50.5211,29.5708]}},{"type":"Feature","properties":{"name":"Gedebak Odde, Denmark","id":"5994"},"geometry":{"type":"Point","coordinates":[14.9667,55.0126]}},{"type":"Feature","properties":{"name":"Gedser, Denmark","id":"5820"},"geometry":{"type":"Point","coordinates":[11.929,54.5763]}},{"type":"Feature","properties":{"name":"George Town, Bahamas","id":"10359"},"geometry":{"type":"Point","coordinates":[-75.788,23.5165]}},{"type":"Feature","properties":{"name":"Georgetown, Guyana","id":"3904"},"geometry":{"type":"Point","coordinates":[-58.1549,6.8041]}},{"type":"Feature","properties":{"name":"Gibraltar, Gibraltar","id":"8948"},"geometry":{"type":"Point","coordinates":[-5.3477,36.156]}},{"type":"Feature","properties":{"name":"Girne, Cyprus","id":"9661"},"geometry":{"type":"Point","coordinates":[33.2364,35.2991]}},{"type":"Feature","properties":{"name":"Gjirin e Lalezit, Albania","id":"10178"},"geometry":{"type":"Point","coordinates":[19.4992,41.2107]}},{"type":"Feature","properties":{"name":"Goonhilly Downs, United Kingdom","id":"3292"},"geometry":{"type":"Point","coordinates":[-5.1745,50.0248]}},{"type":"Feature","properties":{"name":"Governors Harbor, Bahamas","id":"10357"},"geometry":{"type":"Point","coordinates":[-76.2407,25.1961]}},{"type":"Feature","properties":{"name":"Gran Canaria,Canary Islands, Spain","id":"5721"},"geometry":{"type":"Point","coordinates":[-15.3963,27.9646]}},{"type":"Feature","properties":{"name":"Greve de Lecq, Jersey","id":"10375"},"geometry":{"type":"Point","coordinates":[-2.2014,49.2479]}},{"type":"Feature","properties":{"name":"Grindavik, Iceland","id":"10385"},"geometry":{"type":"Point","coordinates":[-22.4449,63.8462]}},{"type":"Feature","properties":{"name":"Grover Beach, California, United States","id":"5748"},"geometry":{"type":"Point","coordinates":[-120.6214,35.1206]}},{"type":"Feature","properties":{"name":"Guanyin Mountain, China","id":"10369"},"geometry":{"type":"Point","coordinates":[118.189,24.494]}},{"type":"Feature","properties":{"name":"Guningtou, Taiwan","id":"10366"},"geometry":{"type":"Point","coordinates":[118.3071,24.4762]}},{"type":"Feature","properties":{"name":"Haifa, Israel","id":"3905"},"geometry":{"type":"Point","coordinates":[34.9987,32.8114]}},{"type":"Feature","properties":{"name":"Haina, Dominican Republic","id":"10120"},"geometry":{"type":"Point","coordinates":[-70.1618,18.699]}},{"type":"Feature","properties":{"name":"Half Moon Bay, Cayman Islands","id":"5799"},"geometry":{"type":"Point","coordinates":[-81.1668,19.283]}},{"type":"Feature","properties":{"name":"Halifax, Nova Scotia, Canada","id":"3640"},"geometry":{"type":"Point","coordinates":[-63.574,44.6458]}},{"type":"Feature","properties":{"name":"Halul Island, Qatar","id":"6019"},"geometry":{"type":"Point","coordinates":[52.4203,25.6686]}},{"type":"Feature","properties":{"name":"Hangö, Finland","id":"7694"},"geometry":{"type":"Point","coordinates":[22.9682,59.8233]}},{"type":"Feature","properties":{"name":"Haradsholm, Finland","id":"9104"},"geometry":{"type":"Point","coordinates":[22.3021,60.301]}},{"type":"Feature","properties":{"name":"Harbour Pointe, Washington, United States","id":"3641"},"geometry":{"type":"Point","coordinates":[-122.3022,47.8863]}},{"type":"Feature","properties":{"name":"Harbour View, Jamaica","id":"9600"},"geometry":{"type":"Point","coordinates":[-76.7169,17.9497]}},{"type":"Feature","properties":{"name":"Havelet Bay, Guernsey","id":"10376"},"geometry":{"type":"Point","coordinates":[-2.5295,49.451]}},{"type":"Feature","properties":{"name":"Hawk Inlet, Alaska, United States","id":"8552"},"geometry":{"type":"Point","coordinates":[-134.7418,58.1281]}},{"type":"Feature","properties":{"name":"Hawksbill, Bahamas","id":"5785"},"geometry":{"type":"Point","coordinates":[-78.7368,26.5168]}},{"type":"Feature","properties":{"name":"Helsingborg, Sweden","id":"3268"},"geometry":{"type":"Point","coordinates":[12.6958,56.0438]}},{"type":"Feature","properties":{"name":"Helsingfors, Finland","id":"9103"},"geometry":{"type":"Point","coordinates":[24.9325,60.1711]}},{"type":"Feature","properties":{"name":"Helsingør, Denmark","id":"6065"},"geometry":{"type":"Point","coordinates":[12.5921,56.0304]}},{"type":"Feature","properties":{"name":"Helsinki, Finland","id":"3064"},"geometry":{"type":"Point","coordinates":[24.9325,60.1711]}},{"type":"Feature","properties":{"name":"Hermosa Beach, California, United States","id":"4966"},"geometry":{"type":"Point","coordinates":[-118.3995,33.8622]}},{"type":"Feature","properties":{"name":"Highbridge, United Kingdom","id":"5745"},"geometry":{"type":"Point","coordinates":[-2.975,51.2222]}},{"type":"Feature","properties":{"name":"Hillerød, Denmark","id":"5992"},"geometry":{"type":"Point","coordinates":[12.3008,55.9279]}},{"type":"Feature","properties":{"name":"Hillsboro, Oregon, United States","id":"3649"},"geometry":{"type":"Point","coordinates":[-123.8112,45.8248]}},{"type":"Feature","properties":{"name":"Hithadhoo, Maldives","id":"10816"},"geometry":{"type":"Point","coordinates":[73.0892,-0.606]}},{"type":"Feature","properties":{"name":"Hjørring, Denmark","id":"5821"},"geometry":{"type":"Point","coordinates":[9.9956,57.4561]}},{"type":"Feature","properties":{"name":"Hollywood, Florida, United States","id":"3650"},"geometry":{"type":"Point","coordinates":[-80.1602,26.0102]}},{"type":"Feature","properties":{"name":"Holyhead, United Kingdom","id":"6035"},"geometry":{"type":"Point","coordinates":[-4.6304,53.3061]}},{"type":"Feature","properties":{"name":"Homer, Alaska, United States","id":"8392"},"geometry":{"type":"Point","coordinates":[-151.5443,59.6464]}},{"type":"Feature","properties":{"name":"Honiara, Solomon Islands","id":"10892"},"geometry":{"type":"Point","coordinates":[159.9483,-9.4303]}},{"type":"Feature","properties":{"name":"Hudishibana, Aruba","id":"10790"},"geometry":{"type":"Point","coordinates":[-70.05,12.6166]}},{"type":"Feature","properties":{"name":"Hulhumale, Maldives","id":"9215"},"geometry":{"type":"Point","coordinates":[73.5402,4.2119]}},{"type":"Feature","properties":{"name":"Igneada, Turkey","id":"6058"},"geometry":{"type":"Point","coordinates":[27.9853,41.8841]}},{"type":"Feature","properties":{"name":"Ijmuiden, Netherlands","id":"10414"},"geometry":{"type":"Point","coordinates":[4.6128,52.4609]}},{"type":"Feature","properties":{"name":"Inverloch, Australia","id":"7860"},"geometry":{"type":"Point","coordinates":[145.7295,-38.6334]}},{"type":"Feature","properties":{"name":"Ishikari, Japan","id":"7834"},"geometry":{"type":"Point","coordinates":[141.3154,43.1712]}},{"type":"Feature","properties":{"name":"Isla Verde, Puerto Rico, United States","id":"5773"},"geometry":{"type":"Point","coordinates":[-66.0169,18.4417]}},{"type":"Feature","properties":{"name":"Island Park, New York, United States","id":"9763"},"geometry":{"type":"Point","coordinates":[-73.656,40.6003]}},{"type":"Feature","properties":{"name":"Istanbul, Turkey","id":"3221"},"geometry":{"type":"Point","coordinates":[28.9861,41.0406]}},{"type":"Feature","properties":{"name":"Jacksonville, Florida, United States","id":"3655"},"geometry":{"type":"Point","coordinates":[-81.6557,30.3317]}},{"type":"Feature","properties":{"name":"Jakarta, Indonesia","id":"3012"},"geometry":{"type":"Point","coordinates":[106.8279,-6.1719]}},{"type":"Feature","properties":{"name":"Jamestown, Saint Helena","id":"10722"},"geometry":{"type":"Point","coordinates":[-5.7047,-15.9222]}},{"type":"Feature","properties":{"name":"Jarry, Guadeloupe","id":"8836"},"geometry":{"type":"Point","coordinates":[-61.5549,16.243]}},{"type":"Feature","properties":{"name":"Jask, Iran","id":"6031"},"geometry":{"type":"Point","coordinates":[57.7974,25.6812]}},{"type":"Feature","properties":{"name":"Jeddah, Saudi Arabia","id":"4361"},"geometry":{"type":"Point","coordinates":[39.1828,21.4812]}},{"type":"Feature","properties":{"name":"Juneau, Alaska, United States","id":"4816"},"geometry":{"type":"Point","coordinates":[-134.4068,58.2995]}},{"type":"Feature","properties":{"name":"Kahe Point, Hawaii, United States","id":"5753"},"geometry":{"type":"Point","coordinates":[-158.1305,21.3541]}},{"type":"Feature","properties":{"name":"Karachi, Pakistan","id":"3259"},"geometry":{"type":"Point","coordinates":[67.0285,24.8894]}},{"type":"Feature","properties":{"name":"Katong, Singapore","id":"5939"},"geometry":{"type":"Point","coordinates":[103.9047,1.3093]}},{"type":"Feature","properties":{"name":"Katthammarsvik, Sweden","id":"10365"},"geometry":{"type":"Point","coordinates":[18.8453,57.431]}},{"type":"Feature","properties":{"name":"Katwijk, Netherlands","id":"3283"},"geometry":{"type":"Point","coordinates":[4.3964,52.2052]}},{"type":"Feature","properties":{"name":"Kawaihae, Hawaii, United States","id":"8973"},"geometry":{"type":"Point","coordinates":[-155.8314,20.0399]}},{"type":"Feature","properties":{"name":"Kaweni, Mayotte","id":"10123"},"geometry":{"type":"Point","coordinates":[45.1659,-12.8171]}},{"type":"Feature","properties":{"name":"Keawaula, Hawaii, United States","id":"5754"},"geometry":{"type":"Point","coordinates":[-158.1517,21.4257]}},{"type":"Feature","properties":{"name":"Kelibia, Tunisia","id":"6015"},"geometry":{"type":"Point","coordinates":[11.0899,36.8494]}},{"type":"Feature","properties":{"name":"Kenai, Alaska, United States","id":"8393"},"geometry":{"type":"Point","coordinates":[-151.2598,60.5529]}},{"type":"Feature","properties":{"name":"Keoje, Korea,Rep.","id":"5975"},"geometry":{"type":"Point","coordinates":[128.6208,34.8807]}},{"type":"Feature","properties":{"name":"Ketchikan, Alaska, United States","id":"8551"},"geometry":{"type":"Point","coordinates":[-131.6478,55.3419]}},{"type":"Feature","properties":{"name":"Khark Island, Iran","id":"10603"},"geometry":{"type":"Point","coordinates":[50.312,29.2458]}},{"type":"Feature","properties":{"name":"Khasab, Oman","id":"7645"},"geometry":{"type":"Point","coordinates":[56.2468,26.1814]}},{"type":"Feature","properties":{"name":"Kilmore Quay, Ireland","id":"5863"},"geometry":{"type":"Point","coordinates":[-6.5841,52.1746]}},{"type":"Feature","properties":{"name":"Kingston, Grenada","id":"6077"},"geometry":{"type":"Point","coordinates":[-61.7154,12.1852]}},{"type":"Feature","properties":{"name":"Kingston, Jamaica","id":"3272"},"geometry":{"type":"Point","coordinates":[-76.7922,17.9922]}},{"type":"Feature","properties":{"name":"Kingstown, Saint Vincent and the Grenadines","id":"4219"},"geometry":{"type":"Point","coordinates":[-61.2547,13.1879]}},{"type":"Feature","properties":{"name":"Kita-kyushu, Japan","id":"5895"},"geometry":{"type":"Point","coordinates":[131.032,33.8393]}},{"type":"Feature","properties":{"name":"Kitaibaraki, Japan","id":"5703"},"geometry":{"type":"Point","coordinates":[140.751,36.8018]}},{"type":"Feature","properties":{"name":"Kodiak, Alaska, United States","id":"8394"},"geometry":{"type":"Point","coordinates":[-152.3952,57.7941]}},{"type":"Feature","properties":{"name":"Kokkini, Greece","id":"7730"},"geometry":{"type":"Point","coordinates":[19.924,39.7538]}},{"type":"Feature","properties":{"name":"Kolobrzeg, Poland","id":"5933"},"geometry":{"type":"Point","coordinates":[15.5749,54.1724]}},{"type":"Feature","properties":{"name":"Kotka, Finland","id":"4552"},"geometry":{"type":"Point","coordinates":[26.8836,60.5011]}},{"type":"Feature","properties":{"name":"Kribi, Cameroon","id":"10095"},"geometry":{"type":"Point","coordinates":[9.9104,2.9329]}},{"type":"Feature","properties":{"name":"Kristiansand, Norway","id":"3131"},"geometry":{"type":"Point","coordinates":[7.9962,58.1509]}},{"type":"Feature","properties":{"name":"Kristinelund, Sweden","id":"10739"},"geometry":{"type":"Point","coordinates":[13.0168,56.5167]}},{"type":"Feature","properties":{"name":"Kuala Tungkal, Indonesia","id":"10283"},"geometry":{"type":"Point","coordinates":[103.4667,-0.8165]}},{"type":"Feature","properties":{"name":"Kuantan, Malaysia","id":"5903"},"geometry":{"type":"Point","coordinates":[103.3226,3.8151]}},{"type":"Feature","properties":{"name":"Kulhudhufushi, Maldives","id":"10811"},"geometry":{"type":"Point","coordinates":[73.0714,6.6225]}},{"type":"Feature","properties":{"name":"Kungsbacka, Sweden","id":"10605"},"geometry":{"type":"Point","coordinates":[12.0762,57.4875]}},{"type":"Feature","properties":{"name":"Kuwait City, Kuwait","id":"3871"},"geometry":{"type":"Point","coordinates":[47.9747,29.3741]}},{"type":"Feature","properties":{"name":"Kwajalein, Republic of Marshall Islands","id":"7879"},"geometry":{"type":"Point","coordinates":[167.4243,9.1898]}},{"type":"Feature","properties":{"name":"Kärdla, Estonia","id":"5828"},"geometry":{"type":"Point","coordinates":[22.738,59.0009]}},{"type":"Feature","properties":{"name":"Kårstø, Norway","id":"5923"},"geometry":{"type":"Point","coordinates":[5.5244,59.2793]}},{"type":"Feature","properties":{"name":"La Guaira, Venezuela","id":"8352"},"geometry":{"type":"Point","coordinates":[-66.8896,10.6031]}},{"type":"Feature","properties":{"name":"La Palma,Canary Islands, Spain","id":"7776"},"geometry":{"type":"Point","coordinates":[-17.7652,28.6632]}},{"type":"Feature","properties":{"name":"La Seyne, France","id":"7766"},"geometry":{"type":"Point","coordinates":[5.8782,43.1029]}},{"type":"Feature","properties":{"name":"Lagos, Nigeria","id":"3280"},"geometry":{"type":"Point","coordinates":[3.4232,6.4389]}},{"type":"Feature","properties":{"name":"Lake Ci, Taiwan","id":"10367"},"geometry":{"type":"Point","coordinates":[118.2898,24.4556]}},{"type":"Feature","properties":{"name":"Lancresse Bay,Guernsey","id":"10380"},"geometry":{"type":"Point","coordinates":[-2.5335,49.5034]}},{"type":"Feature","properties":{"name":"Landeyjar, Iceland","id":"8994"},"geometry":{"type":"Point","coordinates":[-20.1423,63.6422]}},{"type":"Feature","properties":{"name":"Landeyjasandur, Iceland","id":"8544"},"geometry":{"type":"Point","coordinates":[-20.6668,63.7331]}},{"type":"Feature","properties":{"name":"Lannion, France","id":"5837"},"geometry":{"type":"Point","coordinates":[-3.4599,48.7302]}},{"type":"Feature","properties":{"name":"Lantau Island, Hong Kong","id":"5852"},"geometry":{"type":"Point","coordinates":[113.9484,22.2715]}},{"type":"Feature","properties":{"name":"Las Toninas, Argentina","id":"3330"},"geometry":{"type":"Point","coordinates":[-56.6955,-36.4725]}},{"type":"Feature","properties":{"name":"Le Lamentin, Martinique","id":"5905"},"geometry":{"type":"Point","coordinates":[-61.0943,14.6155]}},{"type":"Feature","properties":{"name":"Lena Point, Alaska, United States","id":"5765"},"geometry":{"type":"Point","coordinates":[-134.7473,58.551]}},{"type":"Feature","properties":{"name":"Libreville, Gabon","id":"4221"},"geometry":{"type":"Point","coordinates":[9.4543,0.3943]}},{"type":"Feature","properties":{"name":"Liepaja, Latvia","id":"5310"},"geometry":{"type":"Point","coordinates":[21.0113,56.5082]}},{"type":"Feature","properties":{"name":"Limbe, Cameroon","id":"9846"},"geometry":{"type":"Point","coordinates":[9.2085,4.0146]}},{"type":"Feature","properties":{"name":"Lisbon, Portugal","id":"3146"},"geometry":{"type":"Point","coordinates":[-9.1501,38.7257]}},{"type":"Feature","properties":{"name":"Logi, Russia","id":"9102"},"geometry":{"type":"Point","coordinates":[28.4999,59.7999]}},{"type":"Feature","properties":{"name":"Lome, Togo","id":"3317"},"geometry":{"type":"Point","coordinates":[1.2278,6.126]}},{"type":"Feature","properties":{"name":"Longyearbyen,Svalbard, Norway","id":"9672"},"geometry":{"type":"Point","coordinates":[15.6488,78.2185]}},{"type":"Feature","properties":{"name":"Los Angeles, California, United States","id":"3678"},"geometry":{"type":"Point","coordinates":[-118.2453,34.0534]}},{"type":"Feature","properties":{"name":"Lowestoft, United Kingdom","id":"3084"},"geometry":{"type":"Point","coordinates":[1.7292,52.4713]}},{"type":"Feature","properties":{"name":"Luanda, Angola","id":"4190"},"geometry":{"type":"Point","coordinates":[13.235,-8.8129]}},{"type":"Feature","properties":{"name":"Lurin, Peru","id":"5930"},"geometry":{"type":"Point","coordinates":[-76.8743,-12.2785]}},{"type":"Feature","properties":{"name":"Lusk, Ireland","id":"10907"},"geometry":{"type":"Point","coordinates":[-6.1659,53.5263]}},{"type":"Feature","properties":{"name":"Lyngsa, Denmark","id":"10320"},"geometry":{"type":"Point","coordinates":[10.5146,57.2448]}},{"type":"Feature","properties":{"name":"Lynn, Massachusetts, United States","id":"3683"},"geometry":{"type":"Point","coordinates":[-70.9503,42.4637]}},{"type":"Feature","properties":{"name":"Lynnwood, Washington, United States","id":"5770"},"geometry":{"type":"Point","coordinates":[-122.3158,47.824]}},{"type":"Feature","properties":{"name":"L’Île-Rousse, France","id":"7765"},"geometry":{"type":"Point","coordinates":[8.9371,42.6365]}},{"type":"Feature","properties":{"name":"Maade, Denmark","id":"3083"},"geometry":{"type":"Point","coordinates":[8.5057,55.4586]}},{"type":"Feature","properties":{"name":"Madang, Papua New Guinea","id":"8558"},"geometry":{"type":"Point","coordinates":[145.7849,-5.2337]}},{"type":"Feature","properties":{"name":"Magen's Bay, VI, United States","id":"5758"},"geometry":{"type":"Point","coordinates":[-64.9371,18.373]}},{"type":"Feature","properties":{"name":"Maiquetia, Venezuela","id":"5968"},"geometry":{"type":"Point","coordinates":[-66.9604,10.5994]}},{"type":"Feature","properties":{"name":"Majuro, Republic of Marshall Islands","id":"9060"},"geometry":{"type":"Point","coordinates":[171.1856,7.1162]}},{"type":"Feature","properties":{"name":"Makaha, Hawaii, United States","id":"5760"},"geometry":{"type":"Point","coordinates":[-158.206,21.4603]}},{"type":"Feature","properties":{"name":"Malabo, Equatorial Guinea","id":"4224"},"geometry":{"type":"Point","coordinates":[8.7833,3.7498]}},{"type":"Feature","properties":{"name":"Maldonado, Uruguay","id":"5963"},"geometry":{"type":"Point","coordinates":[-54.9502,-34.9004]}},{"type":"Feature","properties":{"name":"Male, Maldives","id":"4251"},"geometry":{"type":"Point","coordinates":[73.5,4.1664]}},{"type":"Feature","properties":{"name":"Manama, Bahrain","id":"4188"},"geometry":{"type":"Point","coordinates":[50.5759,26.229]}},{"type":"Feature","properties":{"name":"Manasquan, New Jersey, United States","id":"3686"},"geometry":{"type":"Point","coordinates":[-74.0471,40.1234]}},{"type":"Feature","properties":{"name":"Manchester, California, United States","id":"3687"},"geometry":{"type":"Point","coordinates":[-123.687,38.9692]}},{"type":"Feature","properties":{"name":"Mancora, Peru","id":"8484"},"geometry":{"type":"Point","coordinates":[-81.0538,-4.154]}},{"type":"Feature","properties":{"name":"Mangalia, Romania","id":"6059"},"geometry":{"type":"Point","coordinates":[28.5827,43.8172]}},{"type":"Feature","properties":{"name":"Manta, Ecuador","id":"8918"},"geometry":{"type":"Point","coordinates":[-80.7162,-0.95]}},{"type":"Feature","properties":{"name":"Maputo, Mozambique","id":"4252"},"geometry":{"type":"Point","coordinates":[32.5806,-25.9686]}},{"type":"Feature","properties":{"name":"Maria Chiquita, Panama","id":"5928"},"geometry":{"type":"Point","coordinates":[-79.7535,9.4373]}},{"type":"Feature","properties":{"name":"Mariehamn, Finland","id":"5830"},"geometry":{"type":"Point","coordinates":[19.9378,60.1139]}},{"type":"Feature","properties":{"name":"Marmaris, Turkey","id":"5959"},"geometry":{"type":"Point","coordinates":[28.2537,36.8553]}},{"type":"Feature","properties":{"name":"Marseille, France","id":"3210"},"geometry":{"type":"Point","coordinates":[5.3726,43.2932]}},{"type":"Feature","properties":{"name":"Maruyama, Japan","id":"5887"},"geometry":{"type":"Point","coordinates":[139.817,35.0375]}},{"type":"Feature","properties":{"name":"Matthew Town, Bahamas","id":"9581"},"geometry":{"type":"Point","coordinates":[-73.6831,20.9505]}},{"type":"Feature","properties":{"name":"Mayaguana, Bahamas","id":"10362"},"geometry":{"type":"Point","coordinates":[-73.0641,22.4016]}},{"type":"Feature","properties":{"name":"Maywick, United Kingdom","id":"8684"},"geometry":{"type":"Point","coordinates":[-1.3238,60.004]}},{"type":"Feature","properties":{"name":"Mazara del Vallo, Italy","id":"3215"},"geometry":{"type":"Point","coordinates":[12.5913,37.65]}},{"type":"Feature","properties":{"name":"Mazatlán, Mexico","id":"3470"},"geometry":{"type":"Point","coordinates":[-106.4219,23.1995]}},{"type":"Feature","properties":{"name":"McGaurans Beach, Australia","id":"10797"},"geometry":{"type":"Point","coordinates":[147.0712,-38.4436]}},{"type":"Feature","properties":{"name":"Medan, Indonesia","id":"5861"},"geometry":{"type":"Point","coordinates":[98.6761,3.7517]}},{"type":"Feature","properties":{"name":"Melaka, Malaysia","id":"6300"},"geometry":{"type":"Point","coordinates":[102.2209,2.2731]}},{"type":"Feature","properties":{"name":"Melkbosstrand, South Africa","id":"5941"},"geometry":{"type":"Point","coordinates":[18.4458,-33.7272]}},{"type":"Feature","properties":{"name":"Meremöisa, Estonia","id":"5999"},"geometry":{"type":"Point","coordinates":[24.2766,59.4008]}},{"type":"Feature","properties":{"name":"Mersin, Turkey","id":"9080"},"geometry":{"type":"Point","coordinates":[34.6333,36.8]}},{"type":"Feature","properties":{"name":"Mersing, Malaysia","id":"5902"},"geometry":{"type":"Point","coordinates":[103.8499,2.2955]}},{"type":"Feature","properties":{"name":"Mestre, Italy","id":"6016"},"geometry":{"type":"Point","coordinates":[12.2441,45.4959]}},{"type":"Feature","properties":{"name":"Miami, Florida, United States","id":"3696"},"geometry":{"type":"Point","coordinates":[-80.2264,25.7886]}},{"type":"Feature","properties":{"name":"Mielno,Poland","id":"5993"},"geometry":{"type":"Point","coordinates":[16.0623,54.2599]}},{"type":"Feature","properties":{"name":"Milton, Newfoundland and Labrador, Canada","id":"8542"},"geometry":{"type":"Point","coordinates":[-53.9651,48.8643]}},{"type":"Feature","properties":{"name":"Miramar, Puerto Rico, United States","id":"5762"},"geometry":{"type":"Point","coordinates":[-66.0829,18.4534]}},{"type":"Feature","properties":{"name":"Misurata, Libya","id":"7867"},"geometry":{"type":"Point","coordinates":[15.0948,32.3743]}},{"type":"Feature","properties":{"name":"Miura, Japan","id":"5889"},"geometry":{"type":"Point","coordinates":[139.6207,35.1441]}},{"type":"Feature","properties":{"name":"Mombasa, Kenya","id":"5896"},"geometry":{"type":"Point","coordinates":[39.6728,-4.0532]}},{"type":"Feature","properties":{"name":"Monaco, Monaco","id":"3255"},"geometry":{"type":"Point","coordinates":[7.4177,43.7326]}},{"type":"Feature","properties":{"name":"Monrovia, Liberia","id":"4178"},"geometry":{"type":"Point","coordinates":[-10.7972,6.3002]}},{"type":"Feature","properties":{"name":"Monte Carlo, Monaco","id":"6028"},"geometry":{"type":"Point","coordinates":[7.4272,43.7397]}},{"type":"Feature","properties":{"name":"Morant Point, Jamaica","id":"8685"},"geometry":{"type":"Point","coordinates":[-77.8167,18.3495]}},{"type":"Feature","properties":{"name":"Moroni, Comoros","id":"4227"},"geometry":{"type":"Point","coordinates":[43.2434,-11.7007]}},{"type":"Feature","properties":{"name":"Morro Bay, California, United States","id":"5751"},"geometry":{"type":"Point","coordinates":[-120.8472,35.3667]}},{"type":"Feature","properties":{"name":"Msida, Malta","id":"4058"},"geometry":{"type":"Point","coordinates":[14.4881,35.8987]}},{"type":"Feature","properties":{"name":"Mt. Lavinia, Sri Lanka","id":"5949"},"geometry":{"type":"Point","coordinates":[79.8668,6.8327]}},{"type":"Feature","properties":{"name":"Mtunzini, South Africa","id":"5942"},"geometry":{"type":"Point","coordinates":[31.7579,-28.9506]}},{"type":"Feature","properties":{"name":"Muanda, Congo,Dem. Rep.","id":"9426"},"geometry":{"type":"Point","coordinates":[12.3499,-5.9334]}},{"type":"Feature","properties":{"name":"Mumbai, India","id":"3212"},"geometry":{"type":"Point","coordinates":[72.8759,19.0758]}},{"type":"Feature","properties":{"name":"Murdoch, Norway","id":"7651"},"geometry":{"type":"Point","coordinates":[2.3334,54.2664]}},{"type":"Feature","properties":{"name":"Muscat, Oman","id":"4225"},"geometry":{"type":"Point","coordinates":[58.591,23.6152]}},{"type":"Feature","properties":{"name":"Nahariyya, Israel","id":"5866"},"geometry":{"type":"Point","coordinates":[35.0947,33.0113]}},{"type":"Feature","properties":{"name":"Nakhodka, Russia","id":"5362"},"geometry":{"type":"Point","coordinates":[132.874,42.8123]}},{"type":"Feature","properties":{"name":"Nanhui, China","id":"5804"},"geometry":{"type":"Point","coordinates":[121.1914,30.3063]}},{"type":"Feature","properties":{"name":"Nanny Cay, Virgin Islands (U.K.)","id":"10121"},"geometry":{"type":"Point","coordinates":[-64.5973,18.4147]}},{"type":"Feature","properties":{"name":"Naoetsu, Japan","id":"5529"},"geometry":{"type":"Point","coordinates":[138.2421,37.1697]}},{"type":"Feature","properties":{"name":"Narrow Cape, Alaska, United States","id":"8395"},"geometry":{"type":"Point","coordinates":[-152.3291,57.4268]}},{"type":"Feature","properties":{"name":"Nassau, Bahamas","id":"4230"},"geometry":{"type":"Point","coordinates":[-77.3402,25.0671]}},{"type":"Feature","properties":{"name":"Nasugbu, Philippines","id":"9603"},"geometry":{"type":"Point","coordinates":[120.6958,14.3173]}},{"type":"Feature","properties":{"name":"Natal, Brazil","id":"3354"},"geometry":{"type":"Point","coordinates":[-35.2109,-5.7944]}},{"type":"Feature","properties":{"name":"Nedonna Beach, Oregon, United States","id":"3711"},"geometry":{"type":"Point","coordinates":[-123.9401,45.6437]}},{"type":"Feature","properties":{"name":"Needham’s Point, Barbados","id":"6183"},"geometry":{"type":"Point","coordinates":[-59.6128,13.0788]}},{"type":"Feature","properties":{"name":"Nevelsk, Russia","id":"8366"},"geometry":{"type":"Point","coordinates":[141.8592,46.6844]}},{"type":"Feature","properties":{"name":"New Victoria, NS, Canada","id":"9374"},"geometry":{"type":"Point","coordinates":[-60.1296,46.2529]}},{"type":"Feature","properties":{"name":"New York, New York, United States","id":"3715"},"geometry":{"type":"Point","coordinates":[-74.006,40.7143]}},{"type":"Feature","properties":{"name":"Nikiski, Alaska, United States","id":"8540"},"geometry":{"type":"Point","coordinates":[-151.2917,60.6898]}},{"type":"Feature","properties":{"name":"Ninomiya, Japan","id":"5890"},"geometry":{"type":"Point","coordinates":[139.2554,35.2994]}},{"type":"Feature","properties":{"name":"Norden, Germany","id":"5840"},"geometry":{"type":"Point","coordinates":[7.2019,53.5955]}},{"type":"Feature","properties":{"name":"Noro, Soloman Islands","id":"10984"},"geometry":{"type":"Point","coordinates":[157.1999,-8.2411]}},{"type":"Feature","properties":{"name":"Norrtalge, Sweden","id":"6171"},"geometry":{"type":"Point","coordinates":[18.7014,59.7596]}},{"type":"Feature","properties":{"name":"North Miami Beach, Florida, United States","id":"5772"},"geometry":{"type":"Point","coordinates":[-80.1624,25.9329]}},{"type":"Feature","properties":{"name":"Northport, New York, United States","id":"9762"},"geometry":{"type":"Point","coordinates":[-72.8053,40.8187]}},{"type":"Feature","properties":{"name":"Nouakchott, Mauritania","id":"4192"},"geometry":{"type":"Point","coordinates":[-15.9783,18.0839]}},{"type":"Feature","properties":{"name":"Noumea, New Caledonia","id":"5704"},"geometry":{"type":"Point","coordinates":[166.4391,-22.3033]}},{"type":"Feature","properties":{"name":"Novorossiysk, Russia","id":"5117"},"geometry":{"type":"Point","coordinates":[37.7728,44.7236]}},{"type":"Feature","properties":{"name":"Nuku'alofa, Tonga","id":"10315"},"geometry":{"type":"Point","coordinates":[-175.2,-21.1333]}},{"type":"Feature","properties":{"name":"Nuuk, Greenland","id":"8488"},"geometry":{"type":"Point","coordinates":[-51.73,64.1811]}},{"type":"Feature","properties":{"name":"Nyali, Kenya","id":"10122"},"geometry":{"type":"Point","coordinates":[39.7001,-4.0504]}},{"type":"Feature","properties":{"name":"Nynashamn, Sweden","id":"5951"},"geometry":{"type":"Point","coordinates":[17.9465,58.9029]}},{"type":"Feature","properties":{"name":"Oahu, Hawaii, United States","id":"5769"},"geometry":{"type":"Point","coordinates":[-158,21.4389]}},{"type":"Feature","properties":{"name":"Ocho Rios, Jamaica","id":"7688"},"geometry":{"type":"Point","coordinates":[-77.1032,18.3986]}},{"type":"Feature","properties":{"name":"Odessa, Ukraine","id":"5355"},"geometry":{"type":"Point","coordinates":[30.6775,46.489]}},{"type":"Feature","properties":{"name":"Okinawa, Japan","id":"5886"},"geometry":{"type":"Point","coordinates":[127.6806,26.2124]}},{"type":"Feature","properties":{"name":"Olbia, Italy","id":"8592"},"geometry":{"type":"Point","coordinates":[9.4869,40.9225]}},{"type":"Feature","properties":{"name":"Oran, Algeria","id":"8359"},"geometry":{"type":"Point","coordinates":[-0.642,35.7016]}},{"type":"Feature","properties":{"name":"Oranjestad, Aruba","id":"4233"},"geometry":{"type":"Point","coordinates":[-70.0265,12.5246]}},{"type":"Feature","properties":{"name":"Ostend, Belgium","id":"5789"},"geometry":{"type":"Point","coordinates":[2.9126,51.2312]}},{"type":"Feature","properties":{"name":"Osterby, Denmark","id":"10322"},"geometry":{"type":"Point","coordinates":[10.6009,55.8583]}},{"type":"Feature","properties":{"name":"Otranto, Italy","id":"6027"},"geometry":{"type":"Point","coordinates":[18.4857,40.1481]}},{"type":"Feature","properties":{"name":"Oxford Falls, Australia","id":"5778"},"geometry":{"type":"Point","coordinates":[151.245,-33.7374]}},{"type":"Feature","properties":{"name":"Oxwich Bay, United Kingdom","id":"3145"},"geometry":{"type":"Point","coordinates":[-4.1696,51.5578]}},{"type":"Feature","properties":{"name":"Pa Li, Taiwan","id":"5983"},"geometry":{"type":"Point","coordinates":[121.3832,25.15]}},{"type":"Feature","properties":{"name":"Paddington, Australia","id":"5779"},"geometry":{"type":"Point","coordinates":[151.2286,-33.8821]}},{"type":"Feature","properties":{"name":"Paget, Bermuda","id":"9069"},"geometry":{"type":"Point","coordinates":[-64.7887,32.2806]}},{"type":"Feature","properties":{"name":"Pago Pago, American Samoa","id":"9070"},"geometry":{"type":"Point","coordinates":[-170.6957,-14.2765]}},{"type":"Feature","properties":{"name":"Palermo, Italy","id":"3177"},"geometry":{"type":"Point","coordinates":[13.3584,38.1215]}},{"type":"Feature","properties":{"name":"Palma, Spain","id":"4723"},"geometry":{"type":"Point","coordinates":[2.6052,39.5524]}},{"type":"Feature","properties":{"name":"Palmarejo, Cape Verde","id":"10725"},"geometry":{"type":"Point","coordinates":[-23.5213,14.9231]}},{"type":"Feature","properties":{"name":"Panama City, Panama","id":"3334"},"geometry":{"type":"Point","coordinates":[-79.5367,8.9644]}},{"type":"Feature","properties":{"name":"Papenoo, French Polynesia","id":"8974"},"geometry":{"type":"Point","coordinates":[-149.4411,-17.5124]}},{"type":"Feature","properties":{"name":"Paphos, Cyprus","id":"9246"},"geometry":{"type":"Point","coordinates":[32.492,34.9164]}},{"type":"Feature","properties":{"name":"Pargas, Finland","id":"6083"},"geometry":{"type":"Point","coordinates":[22.301,60.3066]}},{"type":"Feature","properties":{"name":"Pedersker, Denmark","id":"5822"},"geometry":{"type":"Point","coordinates":[14.9922,55.0309]}},{"type":"Feature","properties":{"name":"Pembroke, United Kingdom","id":"10373"},"geometry":{"type":"Point","coordinates":[-2.5376,49.5095]}},{"type":"Feature","properties":{"name":"Penang, Malaysia","id":"3307"},"geometry":{"type":"Point","coordinates":[100.363,5.3536]}},{"type":"Feature","properties":{"name":"Penmarch, France","id":"3119"},"geometry":{"type":"Point","coordinates":[-4.3387,47.8113]}},{"type":"Feature","properties":{"name":"Pennant Point,NS,Canada","id":"3734"},"geometry":{"type":"Point","coordinates":[-63.6456,44.4341]}},{"type":"Feature","properties":{"name":"Pentaskhinos, Cyprus","id":"5812"},"geometry":{"type":"Point","coordinates":[33.6036,34.8285]}},{"type":"Feature","properties":{"name":"Perth, Australia","id":"3239"},"geometry":{"type":"Point","coordinates":[115.8573,-31.9534]}},{"type":"Feature","properties":{"name":"Petersburg, Alaska, United States","id":"8550"},"geometry":{"type":"Point","coordinates":[-132.9701,56.8076]}},{"type":"Feature","properties":{"name":"Pevensey Bay, United Kingdom","id":"6050"},"geometry":{"type":"Point","coordinates":[0.3667,50.8191]}},{"type":"Feature","properties":{"name":"Piti, Guam","id":"5973"},"geometry":{"type":"Point","coordinates":[144.6948,13.4647]}},{"type":"Feature","properties":{"name":"Plerin, France","id":"5836"},"geometry":{"type":"Point","coordinates":[-2.7681,48.5348]}},{"type":"Feature","properties":{"name":"Plymouth, Montserrat","id":"4355"},"geometry":{"type":"Point","coordinates":[-62.2157,16.7066]}},{"type":"Feature","properties":{"name":"Pohnpei, Federated States of Micronesia","id":"9062"},"geometry":{"type":"Point","coordinates":[159.0702,7.7865]}},{"type":"Feature","properties":{"name":"Point Noire, Congo,Rep.","id":"5971"},"geometry":{"type":"Point","coordinates":[11.8636,-4.7791]}},{"type":"Feature","properties":{"name":"Pointe-a-Pitre, Guadeloupe","id":"4906"},"geometry":{"type":"Point","coordinates":[-61.5331,16.2411]}},{"type":"Feature","properties":{"name":"Ponta Delgada, Portugal","id":"5945"},"geometry":{"type":"Point","coordinates":[-25.6688,37.7393]}},{"type":"Feature","properties":{"name":"Port Elizabeth, South Africa","id":"8847"},"geometry":{"type":"Point","coordinates":[25.5699,-33.9326]}},{"type":"Feature","properties":{"name":"Port Gentil, Gabon","id":"10818"},"geometry":{"type":"Point","coordinates":[8.7816,-0.721]}},{"type":"Feature","properties":{"name":"Port Nelson, Bahamas","id":"10363"},"geometry":{"type":"Point","coordinates":[-74.8406,23.6521]}},{"type":"Feature","properties":{"name":"Port of Spain, Trinidad and Tobago","id":"4236"},"geometry":{"type":"Point","coordinates":[-61.5167,10.6498]}},{"type":"Feature","properties":{"name":"Port Sudan, Sudan","id":"5950"},"geometry":{"type":"Point","coordinates":[37.2197,19.6156]}},{"type":"Feature","properties":{"name":"Port Vila, Vanuatu","id":"9086"},"geometry":{"type":"Point","coordinates":[168.3229,-17.7304]}},{"type":"Feature","properties":{"name":"Port-au-Prince, Haiti","id":"3878"},"geometry":{"type":"Point","coordinates":[-72.3431,18.5427]}},{"type":"Feature","properties":{"name":"Porthcurno, United Kingdom","id":"3082"},"geometry":{"type":"Point","coordinates":[-5.6545,50.0431]}},{"type":"Feature","properties":{"name":"Poti, Georgia","id":"5530"},"geometry":{"type":"Point","coordinates":[41.6676,42.1508]}},{"type":"Feature","properties":{"name":"Pottington, United Kingdom","id":"5744"},"geometry":{"type":"Point","coordinates":[-4.2278,51.1198]}},{"type":"Feature","properties":{"name":"Pozzallo, Italy","id":"8972"},"geometry":{"type":"Point","coordinates":[14.8538,36.7337]}},{"type":"Feature","properties":{"name":"Praia, Cape Verde","id":"4257"},"geometry":{"type":"Point","coordinates":[-23.5213,14.9231]}},{"type":"Feature","properties":{"name":"Providenciales, Turks and Caicos Islands","id":"4258"},"geometry":{"type":"Point","coordinates":[-72.1202,21.8511]}},{"type":"Feature","properties":{"name":"Puerto Barrios, Guatemala","id":"5848"},"geometry":{"type":"Point","coordinates":[-88.5972,15.7272]}},{"type":"Feature","properties":{"name":"Puerto Cabezas, Nicaragua","id":"5921"},"geometry":{"type":"Point","coordinates":[-83.3939,14.0216]}},{"type":"Feature","properties":{"name":"Puerto Cortes, Honduras","id":"5851"},"geometry":{"type":"Point","coordinates":[-87.9461,15.8448]}},{"type":"Feature","properties":{"name":"Puerto Lempira, Honduras","id":"5692"},"geometry":{"type":"Point","coordinates":[-83.7768,15.2613]}},{"type":"Feature","properties":{"name":"Puerto Limon, Costa Rica","id":"5810"},"geometry":{"type":"Point","coordinates":[-83.0377,9.9886]}},{"type":"Feature","properties":{"name":"Puerto Plata, Dominican Republic","id":"5823"},"geometry":{"type":"Point","coordinates":[-70.6912,19.7994]}},{"type":"Feature","properties":{"name":"Puerto San Jose, Guatemala","id":"5849"},"geometry":{"type":"Point","coordinates":[-90.8222,13.9346]}},{"type":"Feature","properties":{"name":"Puerto Viejo, Venezuela","id":"5967"},"geometry":{"type":"Point","coordinates":[-62.4739,10.7224]}},{"type":"Feature","properties":{"name":"Punta Cana, Dominican Republic","id":"5694"},"geometry":{"type":"Point","coordinates":[-68.4383,18.6213]}},{"type":"Feature","properties":{"name":"Punta Carnero, Ecuador","id":"5824"},"geometry":{"type":"Point","coordinates":[-80.9144,-2.273]}},{"type":"Feature","properties":{"name":"Punto Fijo, Venezuela","id":"5965"},"geometry":{"type":"Point","coordinates":[-70.2044,11.7086]}},{"type":"Feature","properties":{"name":"Pusan, Korea,Rep.","id":"4183"},"geometry":{"type":"Point","coordinates":[128.9994,35.1701]}},{"type":"Feature","properties":{"name":"Puttgarden, Germany","id":"5839"},"geometry":{"type":"Point","coordinates":[11.2125,54.496]}},{"type":"Feature","properties":{"name":"Pyapon, Myanmar","id":"5911"},"geometry":{"type":"Point","coordinates":[95.682,16.2822]}},{"type":"Feature","properties":{"name":"Qalhat, Oman","id":"10684"},"geometry":{"type":"Point","coordinates":[58.591,23.6152]}},{"type":"Feature","properties":{"name":"Qaqortoq, Greenland","id":"8543"},"geometry":{"type":"Point","coordinates":[-46.0354,60.7189]}},{"type":"Feature","properties":{"name":"Qingdao, China","id":"6012"},"geometry":{"type":"Point","coordinates":[120.3426,36.0871]}},{"type":"Feature","properties":{"name":"Ras Lanuf, Libya","id":"7869"},"geometry":{"type":"Point","coordinates":[18.4119,30.5867]}},{"type":"Feature","properties":{"name":"Redcar, United Kingdom","id":"3085"},"geometry":{"type":"Point","coordinates":[-1.0682,54.6139]}},{"type":"Feature","properties":{"name":"Redondo Beach, California, United States","id":"4992"},"geometry":{"type":"Point","coordinates":[-118.388,33.8444]}},{"type":"Feature","properties":{"name":"Rengit, Malaysia","id":"8970"},"geometry":{"type":"Point","coordinates":[103.1477,1.6772]}},{"type":"Feature","properties":{"name":"Ribnitz, Germany","id":"5842"},"geometry":{"type":"Point","coordinates":[12.4315,54.2434]}},{"type":"Feature","properties":{"name":"Riding Point, Bahamas","id":"8354"},"geometry":{"type":"Point","coordinates":[-76.5744,24.425]}},{"type":"Feature","properties":{"name":"Rio de Janeiro, Brazil","id":"3242"},"geometry":{"type":"Point","coordinates":[-43.2096,-22.9034]}},{"type":"Feature","properties":{"name":"Riohacha, Colombia","id":"5807"},"geometry":{"type":"Point","coordinates":[-72.9527,11.4829]}},{"type":"Feature","properties":{"name":"Rodbyhavn, Denmark","id":"5814"},"geometry":{"type":"Point","coordinates":[11.3587,54.6631]}},{"type":"Feature","properties":{"name":"Rodney Bay, Saint Lucia","id":"8837"},"geometry":{"type":"Point","coordinates":[-60.9886,14.0357]}},{"type":"Feature","properties":{"name":"Rose Blanche, NL, Canada","id":"9375"},"geometry":{"type":"Point","coordinates":[-58.6866,47.6176]}},{"type":"Feature","properties":{"name":"Roseau, Dominica","id":"4260"},"geometry":{"type":"Point","coordinates":[-61.3707,15.2517]}},{"type":"Feature","properties":{"name":"Rota, Spain","id":"10400"},"geometry":{"type":"Point","coordinates":[-6.3582,36.617]}},{"type":"Feature","properties":{"name":"Saeby, Denmark","id":"10606"},"geometry":{"type":"Point","coordinates":[10.5166,57.3309]}},{"type":"Feature","properties":{"name":"Saida, Lebanon","id":"6047"},"geometry":{"type":"Point","coordinates":[35.3862,33.4502]}},{"type":"Feature","properties":{"name":"Saint Barthelemy, Guadeloupe","id":"7876"},"geometry":{"type":"Point","coordinates":[-62.8334,17.9]}},{"type":"Feature","properties":{"name":"Saint Maarten, Netherlands Antilles","id":"3188"},"geometry":{"type":"Point","coordinates":[-63.0737,18.0311]}},{"type":"Feature","properties":{"name":"Saint Martin, Guadeloupe","id":"7875"},"geometry":{"type":"Point","coordinates":[-63.0501,18.0928]}},{"type":"Feature","properties":{"name":"Saint Paul, Réunion","id":"5978"},"geometry":{"type":"Point","coordinates":[55.2792,-21.0002]}},{"type":"Feature","properties":{"name":"Sainte Marie, Réunion","id":"9399"},"geometry":{"type":"Point","coordinates":[55.5499,-20.8973]}},{"type":"Feature","properties":{"name":"Saints Bay, United Kingdom","id":"10374"},"geometry":{"type":"Point","coordinates":[-2.558,49.4233]}},{"type":"Feature","properties":{"name":"Sakra Island, Singapore","id":"10307"},"geometry":{"type":"Point","coordinates":[103.7042,1.2588]}},{"type":"Feature","properties":{"name":"Salvador, Brazil","id":"3342"},"geometry":{"type":"Point","coordinates":[-38.5046,-12.97]}},{"type":"Feature","properties":{"name":"Samandag, Turkey","id":"10382"},"geometry":{"type":"Point","coordinates":[35.9993,36.0823]}},{"type":"Feature","properties":{"name":"San Juan, Puerto Rico, United States","id":"4262"},"geometry":{"type":"Point","coordinates":[-66.1067,18.4658]}},{"type":"Feature","properties":{"name":"San Luis Obispo, California, United States","id":"3772"},"geometry":{"type":"Point","coordinates":[-120.6627,35.285]}},{"type":"Feature","properties":{"name":"San Sebastián, Spain","id":"4496"},"geometry":{"type":"Point","coordinates":[-1.9844,43.3208]}},{"type":"Feature","properties":{"name":"Sandwick, United Kingdom","id":"8683"},"geometry":{"type":"Point","coordinates":[-1.2387,59.996]}},{"type":"Feature","properties":{"name":"Sandy Point, Australia","id":"10799"},"geometry":{"type":"Point","coordinates":[146.1196,-38.8202]}},{"type":"Feature","properties":{"name":"Sandy Point, Bahamas","id":"5788"},"geometry":{"type":"Point","coordinates":[-77.3995,26.0252]}},{"type":"Feature","properties":{"name":"Sandymount, Ireland","id":"5865"},"geometry":{"type":"Point","coordinates":[-6.2154,53.3315]}},{"type":"Feature","properties":{"name":"Sangano, Angola","id":"10727"},"geometry":{"type":"Point","coordinates":[13.235,-8.8129]}},{"type":"Feature","properties":{"name":"Santana, Sao Tome and Principe","id":"10094"},"geometry":{"type":"Point","coordinates":[6.5329,0.8596]}},{"type":"Feature","properties":{"name":"Santo Domingo, Dominican Republic","id":"4242"},"geometry":{"type":"Point","coordinates":[-69.9833,18.5]}},{"type":"Feature","properties":{"name":"Santos, Brazil","id":"3411"},"geometry":{"type":"Point","coordinates":[-46.3281,-23.9619]}},{"type":"Feature","properties":{"name":"Satun, Thailand","id":"5956"},"geometry":{"type":"Point","coordinates":[100.0661,6.6132]}},{"type":"Feature","properties":{"name":"Savona, Italy","id":"5880"},"geometry":{"type":"Point","coordinates":[8.4838,44.3056]}},{"type":"Feature","properties":{"name":"Schiehallion, United Kingdom","id":"10353"},"geometry":{"type":"Point","coordinates":[-4.3334,60.3331]}},{"type":"Feature","properties":{"name":"Seixal, Portugal","id":"9058"},"geometry":{"type":"Point","coordinates":[-9.1074,38.6423]}},{"type":"Feature","properties":{"name":"Sennen Cove, United Kingdom","id":"5742"},"geometry":{"type":"Point","coordinates":[-5.6987,50.0761]}},{"type":"Feature","properties":{"name":"Ses Covetes, Spain","id":"5948"},"geometry":{"type":"Point","coordinates":[2.971,39.3546]}},{"type":"Feature","properties":{"name":"Sesimbra, Portugal","id":"5934"},"geometry":{"type":"Point","coordinates":[-9.1028,38.4427]}},{"type":"Feature","properties":{"name":"Seward, Alaska, United States","id":"5755"},"geometry":{"type":"Point","coordinates":[-149.4431,60.1122]}},{"type":"Feature","properties":{"name":"Seydisfjordur, Iceland","id":"5859"},"geometry":{"type":"Point","coordinates":[-14.018,65.2514]}},{"type":"Feature","properties":{"name":"Shanghai, China","id":"3246"},"geometry":{"type":"Point","coordinates":[121.4725,31.2476]}},{"type":"Feature","properties":{"name":"Shantou, China","id":"5803"},"geometry":{"type":"Point","coordinates":[116.6755,23.3546]}},{"type":"Feature","properties":{"name":"Shima, Japan","id":"5883"},"geometry":{"type":"Point","coordinates":[136.8744,34.3368]}},{"type":"Feature","properties":{"name":"Shindu-Ri, Korea,Rep.","id":"5977"},"geometry":{"type":"Point","coordinates":[126.3916,36.5763]}},{"type":"Feature","properties":{"name":"Shirley, New York, United States","id":"3783"},"geometry":{"type":"Point","coordinates":[-72.8722,40.8003]}},{"type":"Feature","properties":{"name":"Siboney, Cuba","id":"8351"},"geometry":{"type":"Point","coordinates":[-75.7124,19.9637]}},{"type":"Feature","properties":{"name":"Singapore, Singapore","id":"3029"},"geometry":{"type":"Point","coordinates":[103.853,1.2937]}},{"type":"Feature","properties":{"name":"Sirt, Libya","id":"7868"},"geometry":{"type":"Point","coordinates":[16.5883,31.2053]}},{"type":"Feature","properties":{"name":"Sitka, Alaska, United States","id":"8554"},"geometry":{"type":"Point","coordinates":[-135.3344,57.0529]}},{"type":"Feature","properties":{"name":"Sizewell, United Kingdom","id":"8398"},"geometry":{"type":"Point","coordinates":[1.6203,52.2071]}},{"type":"Feature","properties":{"name":"Skalvik, Sweden","id":"10323"},"geometry":{"type":"Point","coordinates":[12.6833,56.6832]}},{"type":"Feature","properties":{"name":"Skewjack, United Kingdom","id":"5741"},"geometry":{"type":"Point","coordinates":[-5.6751,50.0636]}},{"type":"Feature","properties":{"name":"Sochi, Russia","id":"5092"},"geometry":{"type":"Point","coordinates":[39.7259,43.6155]}},{"type":"Feature","properties":{"name":"Songkhla, Thailand","id":"4265"},"geometry":{"type":"Point","coordinates":[100.597,7.0785]}},{"type":"Feature","properties":{"name":"Soroosh Platform, Iran","id":"10604"},"geometry":{"type":"Point","coordinates":[49.478,29.0725]}},{"type":"Feature","properties":{"name":"South Arne","id":"10780"},"geometry":{"type":"Point","coordinates":[4.2284,56.0783]}},{"type":"Feature","properties":{"name":"Southport, United Kingdom","id":"3324"},"geometry":{"type":"Point","coordinates":[-3.0064,53.648]}},{"type":"Feature","properties":{"name":"Spanish River Park, Florida, United States","id":"8357"},"geometry":{"type":"Point","coordinates":[-80.0677,26.378]}},{"type":"Feature","properties":{"name":"Spencer Beach, Hawaii, United States","id":"5752"},"geometry":{"type":"Point","coordinates":[-155.8221,20.0231]}},{"type":"Feature","properties":{"name":"Sri Racha, Thailand","id":"6014"},"geometry":{"type":"Point","coordinates":[100.9305,13.1744]}},{"type":"Feature","properties":{"name":"St. Croix, Virgin Islands, United States","id":"5750"},"geometry":{"type":"Point","coordinates":[-64.8194,17.7719]}},{"type":"Feature","properties":{"name":"St. David’s, Bermuda","id":"5793"},"geometry":{"type":"Point","coordinates":[-64.7695,32.3122]}},{"type":"Feature","properties":{"name":"St. George’s, Grenada","id":"4244"},"geometry":{"type":"Point","coordinates":[-61.7116,12.1879]}},{"type":"Feature","properties":{"name":"St. Hilaire, France","id":"5834"},"geometry":{"type":"Point","coordinates":[-1.9459,46.7202]}},{"type":"Feature","properties":{"name":"St. John’s, Antigua and Barbuda","id":"4239"},"geometry":{"type":"Point","coordinates":[-61.858,17.0515]}},{"type":"Feature","properties":{"name":"St. Ouens Bay, Jersey","id":"10379"},"geometry":{"type":"Point","coordinates":[-2.2259,49.2157]}},{"type":"Feature","properties":{"name":"St. Paul's Bay, Malta","id":"8561"},"geometry":{"type":"Point","coordinates":[14.4156,35.9504]}},{"type":"Feature","properties":{"name":"St. Thomas, Virgin Islands (U.S.)","id":"4359"},"geometry":{"type":"Point","coordinates":[-64.9044,18.3245]}},{"type":"Feature","properties":{"name":"St. Valéry, France","id":"5331"},"geometry":{"type":"Point","coordinates":[0.7084,49.8605]}},{"type":"Feature","properties":{"name":"Stanley, Australia","id":"7861"},"geometry":{"type":"Point","coordinates":[145.2941,-40.7604]}},{"type":"Feature","properties":{"name":"Stavsnas, Sweden","id":"5952"},"geometry":{"type":"Point","coordinates":[18.7646,59.8228]}},{"type":"Feature","properties":{"name":"Stockholm, Sweden","id":"3063"},"geometry":{"type":"Point","coordinates":[18.0629,59.3322]}},{"type":"Feature","properties":{"name":"Suez, Egypt","id":"5825"},"geometry":{"type":"Point","coordinates":[32.5301,29.9723]}},{"type":"Feature","properties":{"name":"Sungai Kakap, Indonesia","id":"9094"},"geometry":{"type":"Point","coordinates":[109.1832,-0.0671]}},{"type":"Feature","properties":{"name":"Surville, France","id":"10378"},"geometry":{"type":"Point","coordinates":[-1.65,49.2833]}},{"type":"Feature","properties":{"name":"Suva, Fiji","id":"4268"},"geometry":{"type":"Point","coordinates":[178.4374,-18.1238]}},{"type":"Feature","properties":{"name":"Sventoji, Lithuania","id":"5311"},"geometry":{"type":"Point","coordinates":[21.0824,56.0283]}},{"type":"Feature","properties":{"name":"Swakopmund, Namibia","id":"9845"},"geometry":{"type":"Point","coordinates":[14.5281,-22.6783]}},{"type":"Feature","properties":{"name":"Sydney, Australia","id":"3030"},"geometry":{"type":"Point","coordinates":[151.207,-33.8699]}},{"type":"Feature","properties":{"name":"Sylt, Germany","id":"3142"},"geometry":{"type":"Point","coordinates":[8.3834,54.8985]}},{"type":"Feature","properties":{"name":"Taipa, China","id":"5900"},"geometry":{"type":"Point","coordinates":[113.561,22.1561]}},{"type":"Feature","properties":{"name":"Takapuna, New Zealand","id":"5918"},"geometry":{"type":"Point","coordinates":[174.7679,-36.7879]}},{"type":"Feature","properties":{"name":"Tallinn, Estonia","id":"3089"},"geometry":{"type":"Point","coordinates":[24.7524,59.4362]}},{"type":"Feature","properties":{"name":"Tanah Merah, Singapore","id":"9135"},"geometry":{"type":"Point","coordinates":[103.9466,1.3272]}},{"type":"Feature","properties":{"name":"Tanguisson Point, Guam","id":"3251"},"geometry":{"type":"Point","coordinates":[144.8094,13.5491]}},{"type":"Feature","properties":{"name":"Tanjung Bemban, Indonesia","id":"9096"},"geometry":{"type":"Point","coordinates":[104.1332,1.1732]}},{"type":"Feature","properties":{"name":"Tanjung Pakis, Indonesia","id":"9095"},"geometry":{"type":"Point","coordinates":[107.1209,-5.9815]}},{"type":"Feature","properties":{"name":"Tanshui, Taiwan","id":"5982"},"geometry":{"type":"Point","coordinates":[121.4626,25.1813]}},{"type":"Feature","properties":{"name":"Tartous, Syria","id":"6030"},"geometry":{"type":"Point","coordinates":[35.8978,34.8917]}},{"type":"Feature","properties":{"name":"Tel Aviv, Israel","id":"3213"},"geometry":{"type":"Point","coordinates":[34.7697,32.0446]}},{"type":"Feature","properties":{"name":"Telisai, Brunei","id":"10309"},"geometry":{"type":"Point","coordinates":[114.5706,4.7037]}},{"type":"Feature","properties":{"name":"Tenerife,Canary Islands, Spain","id":"7713"},"geometry":{"type":"Point","coordinates":[-16.5227,28.2928]}},{"type":"Feature","properties":{"name":"Terre Rouge, Mauritius","id":"9400"},"geometry":{"type":"Point","coordinates":[57.5101,-20.0779]}},{"type":"Feature","properties":{"name":"The Valley, Anguilla","id":"4195"},"geometry":{"type":"Point","coordinates":[-63.0572,18.2174]}},{"type":"Feature","properties":{"name":"Thisted, Denmark","id":"6054"},"geometry":{"type":"Point","coordinates":[8.7035,56.9591]}},{"type":"Feature","properties":{"name":"Thorpeness, United Kingdom","id":"8399"},"geometry":{"type":"Point","coordinates":[1.6131,52.1808]}},{"type":"Feature","properties":{"name":"Tijuana, Mexico","id":"3484"},"geometry":{"type":"Point","coordinates":[-117.0382,32.5308]}},{"type":"Feature","properties":{"name":"Tjornuvik, Faeroe Islands","id":"5724"},"geometry":{"type":"Point","coordinates":[-7.1472,62.29]}},{"type":"Feature","properties":{"name":"Toamasina, Madagascar","id":"9398"},"geometry":{"type":"Point","coordinates":[49.4003,-18.1462]}},{"type":"Feature","properties":{"name":"Tobrok, Libya","id":"7874"},"geometry":{"type":"Point","coordinates":[23.9603,32.0796]}},{"type":"Feature","properties":{"name":"Toliary, Madagascar","id":"7398"},"geometry":{"type":"Point","coordinates":[43.6631,-23.3548]}},{"type":"Feature","properties":{"name":"Tolmeta, Libya","id":"7872"},"geometry":{"type":"Point","coordinates":[20.95,32.7167]}},{"type":"Feature","properties":{"name":"Tolu, Colombia","id":"5808"},"geometry":{"type":"Point","coordinates":[-75.5586,9.4963]}},{"type":"Feature","properties":{"name":"Tong Fuk, Hong Kong","id":"5855"},"geometry":{"type":"Point","coordinates":[113.9321,22.2273]}},{"type":"Feature","properties":{"name":"Torshavn, Faeroe Islands","id":"8681"},"geometry":{"type":"Point","coordinates":[-6.7718,62.0175]}},{"type":"Feature","properties":{"name":"Tortola, Virgin Islands (U.K.)","id":"9589"},"geometry":{"type":"Point","coordinates":[-64.5973,18.4147]}},{"type":"Feature","properties":{"name":"Totness, Suriname","id":"9669"},"geometry":{"type":"Point","coordinates":[-56.3754,5.8866]}},{"type":"Feature","properties":{"name":"Toucheng, Taiwan","id":"5981"},"geometry":{"type":"Point","coordinates":[121.8015,24.8636]}},{"type":"Feature","properties":{"name":"Toyohashi, Japan","id":"5893"},"geometry":{"type":"Point","coordinates":[137.3915,34.769]}},{"type":"Feature","properties":{"name":"Trablous, Lebanon","id":"6046"},"geometry":{"type":"Point","coordinates":[35.8592,34.4395]}},{"type":"Feature","properties":{"name":"Trapani, Italy","id":"5876"},"geometry":{"type":"Point","coordinates":[12.5136,38.018]}},{"type":"Feature","properties":{"name":"Tricomo, Cyprus","id":"10388"},"geometry":{"type":"Point","coordinates":[33.8969,35.2973]}},{"type":"Feature","properties":{"name":"Tripoli, Lebanon","id":"8663"},"geometry":{"type":"Point","coordinates":[35.8592,34.4395]}},{"type":"Feature","properties":{"name":"Tripoli, Libya","id":"4271"},"geometry":{"type":"Point","coordinates":[13.1873,32.8774]}},{"type":"Feature","properties":{"name":"Trivendrum, India","id":"7706"},"geometry":{"type":"Point","coordinates":[76.9702,8.7982]}},{"type":"Feature","properties":{"name":"Trujillo, Honduras","id":"5850"},"geometry":{"type":"Point","coordinates":[-85.9547,15.9151]}},{"type":"Feature","properties":{"name":"Tseung Kwan O, Hong Kong","id":"5857"},"geometry":{"type":"Point","coordinates":[114.2587,22.3183]}},{"type":"Feature","properties":{"name":"Tuas, Singapore","id":"5938"},"geometry":{"type":"Point","coordinates":[103.6471,1.3382]}},{"type":"Feature","properties":{"name":"Tuborg, Denmark","id":"8402"},"geometry":{"type":"Point","coordinates":[12.5455,55.722]}},{"type":"Feature","properties":{"name":"Tuckerton, New Jersey, United States","id":"3808"},"geometry":{"type":"Point","coordinates":[-74.3379,39.6039]}},{"type":"Feature","properties":{"name":"Tulum, Mexico","id":"5908"},"geometry":{"type":"Point","coordinates":[-87.4636,20.2126]}},{"type":"Feature","properties":{"name":"Tumon Bay, Guam","id":"5972"},"geometry":{"type":"Point","coordinates":[144.8005,13.5136]}},{"type":"Feature","properties":{"name":"Tungku, Brunei","id":"5970"},"geometry":{"type":"Point","coordinates":[114.8858,4.9264]}},{"type":"Feature","properties":{"name":"Turku, Finland","id":"3126"},"geometry":{"type":"Point","coordinates":[22.2593,60.4493]}},{"type":"Feature","properties":{"name":"Tuticorine, India","id":"7678"},"geometry":{"type":"Point","coordinates":[78.1452,8.8022]}},{"type":"Feature","properties":{"name":"Tyra","id":"10782"},"geometry":{"type":"Point","coordinates":[4.7485,55.7156]}},{"type":"Feature","properties":{"name":"Tétouan, Morocco","id":"5909"},"geometry":{"type":"Point","coordinates":[-5.3918,35.5659]}},{"type":"Feature","properties":{"name":"Ula, Norway","id":"7647"},"geometry":{"type":"Point","coordinates":[2.8472,57.1111]}},{"type":"Feature","properties":{"name":"Umag, Croatia","id":"6017"},"geometry":{"type":"Point","coordinates":[13.5202,45.4331]}},{"type":"Feature","properties":{"name":"Umeå, Sweden","id":"6004"},"geometry":{"type":"Point","coordinates":[20.263,63.8259]}},{"type":"Feature","properties":{"name":"Unqui, Costa Rica","id":"7981"},"geometry":{"type":"Point","coordinates":[-84.4543,9.5259]}},{"type":"Feature","properties":{"name":"Vaasa, Finland","id":"5052"},"geometry":{"type":"Point","coordinates":[21.6164,63.0952]}},{"type":"Feature","properties":{"name":"Valdemar","id":"10781"},"geometry":{"type":"Point","coordinates":[4.5643,55.8041]}},{"type":"Feature","properties":{"name":"Valdez, Alaska, United States","id":"5764"},"geometry":{"type":"Point","coordinates":[-146.3533,61.1304]}},{"type":"Feature","properties":{"name":"Valencia, Spain","id":"3066"},"geometry":{"type":"Point","coordinates":[-0.3769,39.4683]}},{"type":"Feature","properties":{"name":"Valhala, Norway","id":"7650"},"geometry":{"type":"Point","coordinates":[3.3953,56.2781]}},{"type":"Feature","properties":{"name":"Valparaíso, Chile","id":"3331"},"geometry":{"type":"Point","coordinates":[-71.6205,-33.0458]}},{"type":"Feature","properties":{"name":"Varna, Bulgaria","id":"5356"},"geometry":{"type":"Point","coordinates":[27.9128,43.2084]}},{"type":"Feature","properties":{"name":"Ventspils, Latvia","id":"5897"},"geometry":{"type":"Point","coordinates":[21.57,57.3895]}},{"type":"Feature","properties":{"name":"Vero Beach, Florida, United States","id":"3813"},"geometry":{"type":"Point","coordinates":[-80.3943,27.6384]}},{"type":"Feature","properties":{"name":"Vestero, Denmark","id":"10321"},"geometry":{"type":"Point","coordinates":[10.967,57.2722]}},{"type":"Feature","properties":{"name":"Vestmannaeyjar, Iceland","id":"5858"},"geometry":{"type":"Point","coordinates":[-20.2673,63.4377]}},{"type":"Feature","properties":{"name":"Victoria, Seychelles","id":"4362"},"geometry":{"type":"Point","coordinates":[55.445,-4.6176]}},{"type":"Feature","properties":{"name":"Virginia Beach, VA, United States","id":"4862"},"geometry":{"type":"Point","coordinates":[-75.978,36.853]}},{"type":"Feature","properties":{"name":"Vung Tau, Vietnam","id":"6013"},"geometry":{"type":"Point","coordinates":[107.0792,10.3419]}},{"type":"Feature","properties":{"name":"Väddö, Sweden","id":"6000"},"geometry":{"type":"Point","coordinates":[18.8166,59.9834]}},{"type":"Feature","properties":{"name":"Wada, Japan","id":"5892"},"geometry":{"type":"Point","coordinates":[140.0167,35.0359]}},{"type":"Feature","properties":{"name":"Wall Township, New Jersey, United States","id":"3822"},"geometry":{"type":"Point","coordinates":[-74.0629,40.1529]}},{"type":"Feature","properties":{"name":"Warrenton, Oregon, United States","id":"6191"},"geometry":{"type":"Point","coordinates":[-123.9239,46.1651]}},{"type":"Feature","properties":{"name":"West Palm Beach, FL, United States","id":"3824"},"geometry":{"type":"Point","coordinates":[-80.0533,26.7153]}},{"type":"Feature","properties":{"name":"Whenuapai, New Zealand","id":"5919"},"geometry":{"type":"Point","coordinates":[174.6235,-36.7888]}},{"type":"Feature","properties":{"name":"Whitesands Bay, United Kingdom","id":"3081"},"geometry":{"type":"Point","coordinates":[-5.6984,50.0785]}},{"type":"Feature","properties":{"name":"Whittier, Alaska, United States","id":"6255"},"geometry":{"type":"Point","coordinates":[-148.6847,60.7729]}},{"type":"Feature","properties":{"name":"Willemstad, Curaçao","id":"10729"},"geometry":{"type":"Point","coordinates":[-68.8966,12.0953]}},{"type":"Feature","properties":{"name":"Willemstad, Curaçao","id":"4275"},"geometry":{"type":"Point","coordinates":[-68.8966,12.0953]}},{"type":"Feature","properties":{"name":"Winterton, United Kingdom","id":"3269"},"geometry":{"type":"Point","coordinates":[-0.6016,53.6562]}},{"type":"Feature","properties":{"name":"Wrangell, Alaska, United States","id":"8549"},"geometry":{"type":"Point","coordinates":[-132.3838,56.4707]}},{"type":"Feature","properties":{"name":"Yeroskipos, Cyprus","id":"5811"},"geometry":{"type":"Point","coordinates":[32.4666,34.7664]}},{"type":"Feature","properties":{"name":"Ystad, Sweden","id":"5954"},"geometry":{"type":"Point","coordinates":[13.8283,55.4313]}},{"type":"Feature","properties":{"name":"Yzerfontein, South Africa","id":"9844"},"geometry":{"type":"Point","coordinates":[18.1556,-33.3482]}},{"type":"Feature","properties":{"name":"Zafarana, Egypt","id":"9486"},"geometry":{"type":"Point","coordinates":[32.6499,29.1167]}},{"type":"Feature","properties":{"name":"Zandvoort, Netherlands","id":"3141"},"geometry":{"type":"Point","coordinates":[4.5273,52.3704]}},{"type":"Feature","properties":{"name":"Zawia, Libya","id":"7865"},"geometry":{"type":"Point","coordinates":[12.5298,32.7747]}},{"type":"Feature","properties":{"name":"Zeebrugge, Belgium","id":"3139"},"geometry":{"type":"Point","coordinates":[3.207,51.3307]}},{"type":"Feature","properties":{"name":"Zwara, Libya","id":"7864"},"geometry":{"type":"Point","coordinates":[12.0834,32.9334]}}]}